{"type":"FeatureCollection","features":[{"type":"Feature","geometry":{"type":"MultiPolygon","coordinates":[[[[25.97002,40.136328],[25.740234,40.105469],[25.668945,40.135889],[25.740918,40.196289],[25.874805,40.233691],[25.918359,40.237988],[25.977051,40.177832],[25.97002,40.136328]]],[[[41.510059,41.51748],[41.576563,41.497314],[41.701758,41.471582],[41.779395,41.440527],[41.823535,41.432373],[41.925781,41.495654],[42.077734,41.494092],[42.211133,41.486719],[42.27998,41.475],[42.364355,41.454004],[42.466406,41.439844],[42.50791,41.470068],[42.567383,41.559277],[42.59043,41.570703],[42.606836,41.578809],[42.682422,41.585742],[42.754102,41.578906],[42.787891,41.563721],[42.82168,41.492383],[42.906738,41.466846],[43.057129,41.352832],[43.149023,41.307129],[43.171289,41.287939],[43.141016,41.264844],[43.152832,41.236426],[43.205469,41.19917],[43.279297,41.185205],[43.358984,41.190137],[43.402344,41.176562],[43.433398,41.155518],[43.441602,41.125977],[43.439453,41.107129],[43.455273,41.064697],[43.51748,41.004834],[43.591699,40.968213],[43.631641,40.929004],[43.696484,40.794141],[43.722656,40.719531],[43.712891,40.647754],[43.667871,40.574072],[43.569336,40.482373],[43.59375,40.444043],[43.61582,40.393311],[43.608398,40.356592],[43.678125,40.239307],[43.709863,40.166504],[43.683301,40.149658],[43.666211,40.126367],[43.791699,40.070264],[43.941992,40.023145],[44.005371,40.014111],[44.178027,40.035742],[44.289258,40.040381],[44.399609,39.995752],[44.560449,39.887598],[44.733789,39.746484],[44.768262,39.703516],[44.783398,39.684668],[44.817188,39.650439],[44.782129,39.651074],[44.725,39.681738],[44.587109,39.768555],[44.516699,39.73125],[44.455957,39.666748],[44.389355,39.422119],[44.335449,39.396045],[44.24043,39.396777],[44.124023,39.405225],[44.043945,39.392969],[44.023242,39.377441],[44.033789,39.351025],[44.05752,39.31084],[44.074316,39.259961],[44.079102,39.218311],[44.121289,39.180615],[44.178027,39.144824],[44.180566,39.108057],[44.171875,39.05625],[44.158789,39.016748],[44.144531,38.994385],[44.170801,38.934375],[44.232422,38.863232],[44.27168,38.836035],[44.257031,38.700635],[44.280176,38.640674],[44.297852,38.557812],[44.29082,38.420117],[44.298535,38.386279],[44.319629,38.374707],[44.375781,38.36958],[44.430859,38.356787],[44.449902,38.334229],[44.449609,38.317773],[44.380859,38.25459],[44.372754,38.209717],[44.348926,38.146484],[44.329395,38.109277],[44.267969,38.038818],[44.228906,37.967187],[44.211328,37.908057],[44.222949,37.880176],[44.33623,37.871777],[44.397754,37.829248],[44.56123,37.744629],[44.589941,37.710352],[44.545313,37.658154],[44.546094,37.636328],[44.567188,37.608643],[44.577148,37.560205],[44.573145,37.506396],[44.574023,37.4354],[44.604102,37.42373],[44.715137,37.357129],[44.794141,37.290381],[44.796777,37.269775],[44.758301,37.21709],[44.766699,37.156348],[44.765137,37.142432],[44.730957,37.165283],[44.669336,37.173584],[44.605957,37.176025],[44.566016,37.158252],[44.495996,37.110547],[44.401953,37.058496],[44.325586,37.010742],[44.281836,36.978027],[44.245703,36.983301],[44.21748,37.011865],[44.20166,37.051807],[44.208398,37.202637],[44.191797,37.249854],[44.15625,37.282959],[44.114453,37.301855],[44.064648,37.312451],[44.013184,37.313525],[43.940039,37.269287],[43.836426,37.223535],[43.675781,37.227246],[43.567969,37.23584],[43.51582,37.244531],[43.306738,37.314648],[43.263086,37.316504],[43.185156,37.344873],[43.09248,37.367383],[42.936621,37.324756],[42.869141,37.334912],[42.774609,37.371875],[42.741113,37.361914],[42.635449,37.249268],[42.455859,37.128711],[42.358984,37.108594],[42.312891,37.22959],[42.268555,37.276562],[42.247559,37.282227],[42.202734,37.297266],[42.167871,37.288623],[42.059863,37.206055],[41.886816,37.156396],[41.743555,37.126123],[41.515527,37.08916],[41.339551,37.070801],[41.264648,37.069336],[41.102148,37.085889],[40.958887,37.10918],[40.815625,37.108154],[40.705664,37.097705],[40.450391,37.008887],[40.016406,36.826074],[39.686523,36.738623],[39.501465,36.702246],[39.356641,36.681592],[39.108398,36.680566],[38.906445,36.694678],[38.766602,36.693115],[38.688867,36.715088],[38.578027,36.789111],[38.44375,36.862256],[38.383984,36.879248],[38.305859,36.893359],[38.191699,36.901562],[37.906641,36.794629],[37.817969,36.765576],[37.720313,36.743701],[37.523535,36.67832],[37.436328,36.643311],[37.327051,36.646582],[37.187402,36.655908],[37.066211,36.652637],[36.985352,36.702393],[36.941797,36.758398],[36.776563,36.792676],[36.658594,36.802539],[36.628418,36.777686],[36.596875,36.701367],[36.54668,36.506348],[36.5375,36.457422],[36.641406,36.263525],[36.636719,36.233984],[36.562402,36.223926],[36.477051,36.220703],[36.421484,36.203467],[36.375391,36.17124],[36.347559,36.003516],[36.248828,35.972705],[36.201953,35.937549],[36.153613,35.833887],[36.127344,35.831445],[35.967578,35.910059],[35.892676,35.916553],[35.956934,35.998145],[35.887109,36.159082],[35.810938,36.309863],[35.882812,36.406348],[36.031738,36.522705],[36.188477,36.658984],[36.188184,36.743066],[36.180078,36.807227],[36.135156,36.851611],[36.048926,36.910596],[35.90459,36.847607],[35.801563,36.778076],[35.734277,36.763965],[35.661133,36.724316],[35.625586,36.652783],[35.537402,36.597021],[35.393164,36.575195],[35.176172,36.634863],[34.943164,36.725684],[34.81123,36.799268],[34.703613,36.816797],[34.601367,36.784473],[34.299609,36.604199],[34.023438,36.340771],[33.954883,36.295215],[33.694727,36.181982],[33.522754,36.143994],[33.441797,36.152832],[33.099512,36.102979],[32.929492,36.095703],[32.794824,36.035889],[32.533789,36.100732],[32.377734,36.183643],[32.283789,36.267871],[32.130566,36.449121],[32.021973,36.535303],[31.77793,36.612793],[31.352539,36.801074],[31.240625,36.821729],[30.950293,36.848682],[30.644043,36.865674],[30.582031,36.797168],[30.558496,36.52583],[30.506055,36.451123],[30.483594,36.3104],[30.446094,36.269873],[30.387305,36.243262],[30.29541,36.287695],[30.231641,36.307324],[30.083203,36.249365],[29.789258,36.168066],[29.689063,36.156689],[29.34834,36.258838],[29.223633,36.324463],[29.143262,36.397217],[29.116113,36.520117],[29.065527,36.590088],[29.058105,36.638135],[29.038281,36.693457],[28.969629,36.715332],[28.895898,36.673584],[28.816895,36.675293],[28.717676,36.700879],[28.483594,36.803809],[28.303711,36.811963],[28.195605,36.686328],[28.111523,36.646387],[28.019434,36.634473],[28.01416,36.670215],[28.083984,36.751465],[27.803809,36.736475],[27.655859,36.674609],[27.54043,36.684229],[27.453906,36.712158],[27.466895,36.746338],[27.554688,36.758887],[27.630859,36.78667],[27.934473,36.809277],[28.005371,36.831982],[28.083008,36.920264],[28.224414,36.996387],[28.242383,37.029053],[28.133691,37.029492],[27.668359,37.007422],[27.348926,37.01958],[27.311035,36.981885],[27.262988,36.976562],[27.249707,37.07915],[27.300195,37.126855],[27.368164,37.122412],[27.535059,37.163867],[27.520117,37.249121],[27.400586,37.306738],[27.37627,37.340723],[27.289551,37.348682],[27.219238,37.38916],[27.203906,37.491406],[27.147949,37.603613],[27.067969,37.65791],[27.077832,37.687695],[27.224414,37.725439],[27.254785,37.882324],[27.232422,37.978662],[27.158691,37.986865],[26.943848,38.062891],[26.878613,38.054785],[26.807422,38.13833],[26.682813,38.19834],[26.621094,38.176367],[26.582422,38.149268],[26.524707,38.162256],[26.42793,38.214355],[26.33291,38.24248],[26.290723,38.277197],[26.343652,38.370068],[26.416406,38.367871],[26.429688,38.440625],[26.372266,38.561914],[26.377832,38.62417],[26.441309,38.641211],[26.513574,38.629492],[26.586523,38.557031],[26.610352,38.486914],[26.59502,38.418604],[26.641309,38.352441],[26.674219,38.335742],[26.696387,38.405371],[26.727344,38.418604],[26.769922,38.388184],[26.861426,38.372949],[27.098633,38.415723],[27.144238,38.451953],[26.97041,38.447852],[26.906836,38.481738],[26.837793,38.557568],[26.795313,38.626416],[26.787695,38.660205],[26.763672,38.709619],[26.790137,38.736084],[26.90918,38.775781],[27.013672,38.886865],[26.970117,38.919043],[26.920313,38.934229],[26.866211,38.922949],[26.814941,38.960986],[26.808301,39.013916],[26.849316,39.056738],[26.853613,39.115625],[26.719336,39.260645],[26.681836,39.292236],[26.710742,39.339648],[26.813281,39.419043],[26.910938,39.517334],[26.899219,39.549658],[26.827051,39.562891],[26.484082,39.520703],[26.350781,39.484082],[26.113086,39.467383],[26.095996,39.520801],[26.101367,39.568945],[26.154688,39.656641],[26.149805,39.872852],[26.181348,39.990088],[26.313379,40.025],[26.475391,40.197266],[26.738086,40.400244],[27.012109,40.396338],[27.12168,40.452344],[27.28457,40.455615],[27.31416,40.414893],[27.332617,40.375928],[27.475586,40.319922],[27.728027,40.328809],[27.789355,40.350879],[27.848535,40.381738],[27.731836,40.481494],[27.769141,40.509619],[27.874902,40.512939],[27.989551,40.489453],[27.994824,40.466602],[27.964355,40.435303],[27.928906,40.38042],[27.962598,40.369873],[28.289062,40.403027],[28.630273,40.376465],[28.738867,40.390869],[29.007129,40.389746],[29.055176,40.42417],[28.974023,40.467383],[28.894629,40.482422],[28.841211,40.503467],[28.787891,40.534033],[28.958008,40.630566],[29.054102,40.649121],[29.507617,40.708398],[29.844922,40.738086],[29.849219,40.760107],[29.800586,40.760156],[29.364746,40.809277],[29.259766,40.847314],[29.113867,40.937842],[29.082227,40.963428],[29.045508,41.007568],[29.067383,41.10166],[29.094336,41.177246],[29.148145,41.221045],[29.322266,41.227734],[29.919336,41.15083],[30.344922,41.196924],[30.810059,41.084863],[31.254883,41.107617],[31.34668,41.15791],[31.458008,41.32002],[32.086426,41.589209],[32.306445,41.72959],[32.542188,41.806396],[32.94668,41.891748],[33.284766,42.00459],[33.381348,42.017578],[34.192969,41.963672],[34.750488,41.956836],[35.006445,42.063281],[35.154883,42.027539],[35.141016,41.989502],[35.114063,41.956982],[35.12207,41.891113],[35.20918,41.794385],[35.297754,41.728516],[35.558008,41.634033],[35.919824,41.713721],[35.978125,41.704834],[36.051758,41.682568],[36.179199,41.426562],[36.278418,41.336133],[36.405371,41.274609],[36.509668,41.2625],[36.587109,41.32666],[36.64707,41.352539],[36.777734,41.363477],[36.991992,41.275391],[37.066211,41.184424],[37.430957,41.114111],[37.765625,41.078906],[37.910059,41.001904],[38.381055,40.924512],[38.556934,40.936523],[38.852148,41.017676],[39.426367,41.106445],[39.80791,40.98252],[39.911133,40.966455],[40.000195,40.977148],[40.128418,40.943018],[40.265234,40.961328],[40.6875,41.107422],[40.819531,41.190234],[40.959473,41.211621],[41.083594,41.261182],[41.414355,41.423633],[41.510059,41.51748]]],[[[28.014453,41.969043],[27.987305,41.854883],[28.050293,41.72915],[28.197852,41.554492],[28.346387,41.466357],[28.946777,41.248389],[29.057227,41.229736],[29.032129,41.140479],[28.995996,41.061133],[28.95625,41.008203],[28.780371,40.97417],[28.294922,41.071484],[28.172168,41.080713],[28.085547,41.061328],[27.925195,40.990576],[27.747363,41.013281],[27.499414,40.973145],[27.430176,40.839941],[27.258008,40.687354],[26.974609,40.564014],[26.77207,40.498047],[26.467969,40.261475],[26.32998,40.123389],[26.271777,40.096582],[26.202734,40.075391],[26.225977,40.141699],[26.260156,40.202393],[26.252344,40.248145],[26.253809,40.314697],[26.355273,40.390234],[26.447461,40.44502],[26.720313,40.544238],[26.79209,40.626611],[26.578125,40.624658],[26.360938,40.606348],[26.224219,40.618066],[26.105469,40.611328],[26.067773,40.683398],[26.038965,40.726758],[26.069727,40.740283],[26.10918,40.749658],[26.178906,40.826514],[26.241211,40.883203],[26.331055,40.954492],[26.354102,40.99707],[26.354102,41.036768],[26.332617,41.064307],[26.328418,41.097021],[26.325684,41.143262],[26.330664,41.23877],[26.536426,41.343115],[26.602344,41.35415],[26.624902,41.401758],[26.609766,41.512158],[26.581348,41.60127],[26.544531,41.607227],[26.49502,41.633252],[26.4625,41.663379],[26.410547,41.696338],[26.320898,41.716553],[26.317969,41.744678],[26.327246,41.772803],[26.360352,41.801562],[26.511426,41.826367],[26.529297,41.84668],[26.549707,41.896729],[26.579688,41.947949],[26.615332,41.964893],[26.679199,41.96333],[26.800391,41.975146],[26.884863,41.991846],[26.96875,42.026855],[27.011719,42.058643],[27.193359,42.0771],[27.244336,42.093262],[27.294922,42.079541],[27.362891,42.025049],[27.474805,41.946875],[27.534863,41.920801],[27.579883,41.93291],[27.661133,41.961328],[27.738867,41.961523],[27.80166,41.956543],[27.831934,41.981299],[27.879199,41.986621],[28.014453,41.969043]]]]},"properties":{"iso":"TR","name":"Turkey","layer":"ottoman-peak","ottoman_era":"1683"}},{"type":"Feature","geometry":{"type":"MultiPolygon","coordinates":[[[[11.50459,33.181934],[11.502441,33.155566],[11.467188,32.965723],[11.45918,32.897363],[11.453906,32.781689],[11.453906,32.642578],[11.533789,32.524951],[11.535938,32.47334],[11.50498,32.413672],[11.358008,32.345215],[11.168262,32.256738],[11.005176,32.172705],[10.826367,32.080664],[10.771582,32.021191],[10.683008,31.975391],[10.608887,31.929541],[10.595508,31.885742],[10.543652,31.802539],[10.475781,31.736035],[10.306055,31.704834],[10.274609,31.684961],[10.195996,31.585107],[10.159863,31.545801],[10.114941,31.46377],[10.172656,31.250977],[10.243359,31.032129],[10.257031,30.94082],[10.256055,30.864941],[10.216406,30.783203],[10.125977,30.665967],[10.059766,30.580078],[9.93252,30.425342],[9.89502,30.387305],[9.807422,30.342236],[9.637988,30.282324],[9.51875,30.229395],[9.458008,30.465381],[9.406055,30.666797],[9.363281,30.83291],[9.287891,31.125342],[9.224023,31.373682],[9.160254,31.621338],[9.102344,31.846143],[9.044043,32.072363],[9.018945,32.105371],[8.844043,32.212109],[8.68291,32.310449],[8.515137,32.422314],[8.333398,32.543604],[8.304199,32.696289],[8.210938,32.926709],[8.1125,33.055322],[8.075586,33.089062],[7.877246,33.172119],[7.762695,33.233105],[7.731348,33.268506],[7.70918,33.362305],[7.627539,33.548633],[7.534375,33.71792],[7.500195,33.832471],[7.495605,33.976514],[7.513867,34.080518],[7.554492,34.125],[7.748535,34.254492],[7.838281,34.410303],[7.949414,34.468701],[8.045605,34.512695],[8.123438,34.563916],[8.192773,34.646289],[8.245605,34.734082],[8.254688,34.828955],[8.276855,34.979492],[8.312109,35.084619],[8.394238,35.203857],[8.359863,35.299609],[8.316406,35.403125],[8.329004,35.582227],[8.318066,35.654932],[8.28291,35.719287],[8.24707,35.801807],[8.245703,35.870557],[8.280273,36.050977],[8.306738,36.18877],[8.34873,36.367969],[8.333984,36.418164],[8.302734,36.455615],[8.208789,36.495117],[8.207617,36.518945],[8.230762,36.545264],[8.369629,36.63252],[8.444238,36.760742],[8.506738,36.7875],[8.60127,36.833936],[8.597656,36.883887],[8.576563,36.937207],[8.823535,36.997607],[9.058887,37.155859],[9.141992,37.194629],[9.687988,37.340381],[9.758887,37.330273],[9.838477,37.308984],[9.815527,37.254639],[9.783984,37.211426],[9.830273,37.135352],[9.896387,37.181641],[9.879395,37.212842],[9.875586,37.25415],[9.988086,37.257764],[10.087402,37.25127],[10.196387,37.205859],[10.18877,37.033887],[10.334082,36.865381],[10.293262,36.781494],[10.412305,36.731836],[10.518164,36.791357],[10.571289,36.879443],[10.766211,36.930273],[10.951367,37.059277],[11.053906,37.07251],[11.077051,36.966699],[11.12666,36.874072],[11.056543,36.841455],[10.967188,36.743018],[10.798145,36.493115],[10.642383,36.419629],[10.525684,36.32334],[10.487988,36.254883],[10.476562,36.175146],[10.505762,36.032422],[10.59082,35.887256],[10.688965,35.799512],[10.783691,35.77207],[11.004297,35.633838],[11.000684,35.551611],[11.031543,35.453857],[11.043262,35.335107],[11.120117,35.240283],[10.955859,35.033643],[10.866211,34.884326],[10.690918,34.678467],[10.534863,34.544727],[10.200391,34.346045],[10.118359,34.280078],[10.064844,34.211621],[10.040039,34.140332],[10.049023,34.056299],[10.158984,33.850049],[10.305273,33.728271],[10.454297,33.6625],[10.713184,33.689014],[10.704297,33.609668],[10.722754,33.514404],[10.828125,33.518896],[10.898438,33.533691],[10.958008,33.626318],[11.08457,33.562891],[11.150293,33.369238],[11.257422,33.308838],[11.269922,33.286328],[11.232129,33.271582],[11.202637,33.249219],[11.234277,33.233594],[11.338086,33.209473],[11.400586,33.224902],[11.50459,33.181934]]],[[[11.278027,34.753809],[11.123633,34.681689],[11.153027,34.74458],[11.254883,34.820312],[11.281055,34.802197],[11.278027,34.753809]]],[[[10.957617,33.72207],[10.931348,33.717432],[10.883008,33.690186],[10.857422,33.687158],[10.784766,33.717676],[10.757031,33.71748],[10.72207,33.738916],[10.733887,33.855615],[10.745215,33.888672],[10.921973,33.893115],[11.017871,33.82334],[11.033594,33.805029],[11.037598,33.785059],[10.993066,33.745947],[10.957617,33.72207]]]]},"properties":{"iso":"TN","name":"Tunisia","layer":"ottoman-peak","ottoman_era":"1683"}},{"type":"Feature","geometry":{"type":"Polygon","coordinates":[[[35.892676,35.916553],[35.967578,35.910059],[36.127344,35.831445],[36.153613,35.833887],[36.201953,35.937549],[36.248828,35.972705],[36.347559,36.003516],[36.375391,36.17124],[36.421484,36.203467],[36.477051,36.220703],[36.562402,36.223926],[36.636719,36.233984],[36.641406,36.263525],[36.5375,36.457422],[36.54668,36.506348],[36.596875,36.701367],[36.628418,36.777686],[36.658594,36.802539],[36.776563,36.792676],[36.941797,36.758398],[36.985352,36.702393],[37.066211,36.652637],[37.187402,36.655908],[37.327051,36.646582],[37.436328,36.643311],[37.523535,36.67832],[37.720313,36.743701],[37.817969,36.765576],[37.906641,36.794629],[38.191699,36.901562],[38.305859,36.893359],[38.383984,36.879248],[38.44375,36.862256],[38.578027,36.789111],[38.688867,36.715088],[38.766602,36.693115],[38.906445,36.694678],[39.108398,36.680566],[39.356641,36.681592],[39.501465,36.702246],[39.686523,36.738623],[40.016406,36.826074],[40.450391,37.008887],[40.705664,37.097705],[40.815625,37.108154],[40.958887,37.10918],[41.102148,37.085889],[41.264648,37.069336],[41.339551,37.070801],[41.515527,37.08916],[41.743555,37.126123],[41.886816,37.156396],[42.059863,37.206055],[42.167871,37.288623],[42.202734,37.297266],[42.247559,37.282227],[42.268555,37.276562],[42.312891,37.22959],[42.358984,37.108594],[42.359082,37.09502],[42.350098,37.060596],[42.237305,36.961133],[42.083984,36.826025],[41.974023,36.74082],[41.788574,36.597168],[41.650195,36.566406],[41.416797,36.514648],[41.354199,36.464404],[41.295996,36.38335],[41.261816,36.272461],[41.251758,36.203027],[41.245605,36.073389],[41.300195,35.938965],[41.352637,35.809961],[41.359375,35.724609],[41.354102,35.64043],[41.30332,35.550635],[41.24834,35.42749],[41.216406,35.288184],[41.199609,35.027393],[41.199219,34.805322],[41.194727,34.768994],[41.099023,34.612305],[40.987012,34.429053],[40.935059,34.386572],[40.689453,34.332031],[40.421484,34.197754],[40.121973,34.047656],[39.85,33.911377],[39.564453,33.768359],[39.268359,33.62002],[39.056738,33.514014],[38.773535,33.372217],[38.515625,33.236621],[38.254297,33.099219],[38.055762,32.994873],[37.754102,32.829834],[37.577441,32.733057],[37.317578,32.590771],[37.088965,32.465527],[36.818359,32.317285],[36.479199,32.361328],[36.37207,32.386914],[36.284277,32.457471],[36.219727,32.495117],[36.059473,32.533789],[35.956445,32.666699],[35.894727,32.71377],[35.787305,32.734912],[35.833283,32.820094],[35.841863,32.875954],[35.887977,32.944379],[35.859022,32.989367],[35.84508,33.084665],[35.824704,33.108024],[35.817197,33.133173],[35.833283,33.163702],[35.826849,33.195117],[35.808618,33.208577],[35.800038,33.256121],[35.785024,33.291089],[35.792531,33.334107],[35.816125,33.361879],[35.840738,33.415661],[35.869141,33.431738],[35.914746,33.465381],[35.926563,33.500293],[35.967578,33.53457],[36.022266,33.5625],[36.034473,33.585059],[36.02666,33.597949],[35.97168,33.623096],[35.942383,33.667578],[35.968457,33.732422],[35.986133,33.752637],[36.018848,33.783936],[36.092188,33.831592],[36.149805,33.839502],[36.199414,33.839551],[36.283398,33.835596],[36.348535,33.827051],[36.365039,33.839355],[36.362793,33.855127],[36.282227,33.894189],[36.277832,33.925293],[36.297852,33.958643],[36.354883,34.011328],[36.422852,34.049854],[36.45752,34.056836],[36.535156,34.134326],[36.584961,34.22124],[36.504395,34.432373],[36.455566,34.466162],[36.376465,34.495166],[36.329883,34.499609],[36.32627,34.51333],[36.388672,34.566895],[36.433008,34.613477],[36.383887,34.65791],[36.296289,34.678711],[36.263574,34.632861],[36.151074,34.628613],[35.97627,34.629199],[35.899316,34.8521],[35.887891,34.948633],[35.889941,35.060303],[35.943066,35.223828],[35.918066,35.299512],[35.916016,35.350537],[35.902441,35.420703],[35.764453,35.571582],[35.839648,35.849219],[35.892676,35.916553]]]},"properties":{"iso":"SY","name":"Syria","layer":"ottoman-peak","ottoman_era":"1683"}},{"type":"Feature","geometry":{"type":"Polygon","coordinates":[[[21.360059,44.82666],[21.523145,44.790088],[21.59707,44.75542],[21.636133,44.710449],[21.740234,44.680664],[21.909277,44.666113],[22.026953,44.619873],[22.093066,44.541943],[22.200977,44.560693],[22.350684,44.676123],[22.497656,44.70625],[22.64209,44.650977],[22.720898,44.605518],[22.734375,44.569922],[22.700781,44.555518],[22.620117,44.562354],[22.554004,44.540332],[22.502344,44.4896],[22.494531,44.435449],[22.530664,44.377979],[22.581836,44.33833],[22.647949,44.316455],[22.683301,44.286475],[22.687891,44.248291],[22.705078,44.237793],[22.66748,44.220215],[22.626563,44.194092],[22.603418,44.148584],[22.597461,44.075293],[22.469043,44.018018],[22.420801,44.007422],[22.399023,43.969531],[22.36543,43.862109],[22.369629,43.781299],[22.386914,43.740137],[22.394824,43.706641],[22.436328,43.665479],[22.474121,43.602246],[22.499121,43.518848],[22.55459,43.454492],[22.696973,43.391064],[22.767578,43.35415],[22.819727,43.300732],[22.85957,43.252344],[22.976855,43.187988],[22.967969,43.142041],[22.942285,43.09707],[22.915234,43.075977],[22.856836,43.018262],[22.799902,42.985742],[22.706152,42.883936],[22.558105,42.878467],[22.522754,42.870312],[22.466797,42.84248],[22.439258,42.79165],[22.465625,42.750781],[22.463281,42.709473],[22.43623,42.629102],[22.47207,42.543311],[22.524219,42.503906],[22.532422,42.481201],[22.523535,42.440967],[22.445703,42.359131],[22.42207,42.328857],[22.344043,42.313965],[22.317383,42.321729],[22.277051,42.349854],[22.239746,42.358154],[22.14668,42.325],[22.052051,42.304639],[21.977539,42.320068],[21.904102,42.32207],[21.853027,42.308398],[21.814648,42.303125],[21.739258,42.267725],[21.618262,42.242139],[21.5625,42.24751],[21.541602,42.280811],[21.518945,42.328418],[21.52998,42.35],[21.609863,42.387451],[21.619043,42.423242],[21.730664,42.595459],[21.752148,42.651514],[21.75293,42.669824],[21.723828,42.681982],[21.6625,42.681494],[21.390625,42.751416],[21.403027,42.831543],[21.323145,42.874707],[21.237109,42.913232],[21.222656,42.956201],[21.127051,43.043018],[21.057031,43.091699],[20.967676,43.116016],[20.890723,43.15166],[20.844434,43.173437],[20.823828,43.213965],[20.823828,43.237939],[20.800586,43.261084],[20.763379,43.258594],[20.700586,43.226367],[20.623145,43.198633],[20.609668,43.178418],[20.637598,43.130371],[20.657617,43.099854],[20.648535,43.070947],[20.624023,43.03418],[20.475098,42.953027],[20.458398,42.924561],[20.486816,42.879053],[20.468848,42.85791],[20.344336,42.82793],[20.347656,42.852783],[20.339941,42.892871],[20.268457,42.935449],[20.167871,42.968506],[19.944043,43.081641],[19.858008,43.096533],[19.781152,43.109766],[19.670996,43.163965],[19.614453,43.173437],[19.551563,43.212256],[19.414648,43.342822],[19.298242,43.413965],[19.21875,43.449951],[19.196484,43.48501],[19.191602,43.521045],[19.194336,43.533301],[19.254492,43.584375],[19.300781,43.591797],[19.360352,43.593457],[19.399609,43.567578],[19.45127,43.562061],[19.47998,43.595166],[19.495117,43.642871],[19.488184,43.703564],[19.364063,43.844775],[19.257227,43.943311],[19.24502,43.965039],[19.268066,43.983447],[19.305273,43.993359],[19.345215,43.985107],[19.449414,43.978027],[19.549512,43.987109],[19.583691,44.011084],[19.583789,44.043457],[19.547168,44.073486],[19.430176,44.154492],[19.338867,44.22583],[19.231543,44.280566],[19.151855,44.302539],[19.12832,44.330273],[19.118457,44.359961],[19.127344,44.414551],[19.132422,44.483789],[19.151367,44.527344],[19.223145,44.60957],[19.291895,44.696777],[19.334473,44.780664],[19.356836,44.858545],[19.348633,44.880908],[19.312695,44.897461],[19.236816,44.914258],[19.131543,44.899609],[19.04209,44.871338],[19.007129,44.869189],[18.995508,44.904004],[19.00957,44.919385],[19.037598,44.917529],[19.060547,44.910986],[19.085254,44.926758],[19.1,44.973779],[19.062891,45.137207],[19.129688,45.151709],[19.130762,45.175488],[19.136914,45.19624],[19.205957,45.167773],[19.303027,45.167285],[19.388086,45.172998],[19.400977,45.189062],[19.4,45.2125],[19.382324,45.230615],[19.352246,45.24541],[19.330273,45.268066],[19.272852,45.277979],[19.093066,45.336914],[19.004688,45.399512],[19.007617,45.46582],[19.033301,45.502197],[19.064258,45.51499],[19.055078,45.527246],[18.953711,45.558008],[18.917871,45.60083],[18.947266,45.655811],[18.894531,45.76709],[18.839063,45.835742],[18.893555,45.865527],[18.901074,45.907617],[18.905371,45.931738],[18.927832,45.931396],[19.015723,45.959717],[19.047656,45.982666],[19.066211,46.009521],[19.087305,46.016162],[19.146289,45.987012],[19.208398,45.984424],[19.278125,46.002881],[19.330273,46.028516],[19.392871,46.049805],[19.421289,46.064453],[19.45752,46.087354],[19.530762,46.155176],[19.613477,46.169189],[19.724512,46.151904],[19.844434,46.145898],[19.934082,46.161475],[20.161426,46.141895],[20.210156,46.126025],[20.241797,46.108594],[20.301367,46.050684],[20.358594,45.975488],[20.437988,45.940771],[20.532617,45.899512],[20.581152,45.869482],[20.652734,45.779395],[20.709277,45.735254],[20.727832,45.737402],[20.746875,45.748975],[20.760156,45.758105],[20.775,45.749805],[20.775781,45.72251],[20.779297,45.662012],[20.76582,45.597461],[20.786035,45.536475],[20.786523,45.51748],[20.772461,45.500098],[20.774219,45.484424],[20.794043,45.467871],[20.870801,45.427539],[20.941797,45.365332],[21.023828,45.321533],[21.099902,45.293555],[21.147852,45.291748],[21.226465,45.241309],[21.381738,45.205078],[21.431445,45.192529],[21.46543,45.171875],[21.490234,45.1479],[21.491797,45.122266],[21.467871,45.109863],[21.434473,45.075146],[21.420703,45.032959],[21.395898,45.022217],[21.371094,45.021387],[21.35293,45.008984],[21.357031,44.990771],[21.377734,44.973437],[21.409961,44.957715],[21.471973,44.941992],[21.533203,44.918848],[21.532324,44.900684],[21.519922,44.880811],[21.442188,44.873389],[21.384375,44.870068],[21.35791,44.861816],[21.360059,44.82666]]]},"properties":{"iso":"RS","name":"Serbia","layer":"ottoman-peak","ottoman_era":"1683"}},{"type":"Feature","geometry":{"type":"Polygon","coordinates":[[[28.2125,45.450439],[28.317676,45.347119],[28.45127,45.292187],[28.760742,45.234131],[28.788281,45.240967],[28.791406,45.251904],[28.769824,45.266895],[28.766602,45.28623],[28.781738,45.309863],[28.824316,45.311084],[28.894336,45.289941],[29.027441,45.320557],[29.223535,45.40293],[29.403711,45.419678],[29.567676,45.370801],[29.651953,45.313916],[29.705859,45.259912],[29.689063,45.193213],[29.678613,45.15166],[29.635352,44.979639],[29.605469,44.915479],[29.55752,44.843408],[29.048242,44.757568],[29.081055,44.798828],[29.069141,44.871143],[29.047754,44.925684],[29.095313,44.975049],[28.980664,44.99292],[28.930566,44.96582],[28.891504,44.918652],[28.926172,44.81001],[28.87041,44.749951],[28.849023,44.716309],[28.846484,44.636865],[28.813574,44.60249],[28.807031,44.565039],[28.888184,44.574756],[28.851758,44.506104],[28.699219,44.374219],[28.64541,44.295654],[28.658594,43.983838],[28.590723,43.797412],[28.585352,43.742236],[28.423438,43.740479],[28.375195,43.744775],[28.221973,43.772852],[28.05,43.822412],[27.948926,43.918604],[27.884277,43.987354],[27.738574,43.956299],[27.710742,43.9646],[27.670898,43.997803],[27.561035,44.020068],[27.425391,44.020508],[27.120703,44.146143],[27.086914,44.167383],[26.847754,44.146191],[26.489258,44.083984],[26.21582,44.007275],[25.933398,43.870557],[25.818848,43.766846],[25.686133,43.711768],[25.49707,43.670801],[25.159668,43.686328],[24.808203,43.738428],[24.430566,43.794385],[24.226758,43.763477],[23.950781,43.78667],[23.53457,43.853564],[23.224609,43.873877],[22.919043,43.834473],[22.867676,43.864551],[22.856445,43.899023],[22.868262,43.9479],[22.911328,43.987207],[22.985352,44.016992],[23.024414,44.047217],[23.028516,44.077979],[22.94541,44.127295],[22.775195,44.195215],[22.705078,44.237793],[22.687891,44.248291],[22.683301,44.286475],[22.647949,44.316455],[22.581836,44.33833],[22.530664,44.377979],[22.494531,44.435449],[22.502344,44.4896],[22.554004,44.540332],[22.620117,44.562354],[22.700781,44.555518],[22.734375,44.569922],[22.720898,44.605518],[22.64209,44.650977],[22.497656,44.70625],[22.350684,44.676123],[22.200977,44.560693],[22.093066,44.541943],[22.026953,44.619873],[21.909277,44.666113],[21.740234,44.680664],[21.636133,44.710449],[21.59707,44.75542],[21.523145,44.790088],[21.360059,44.82666],[21.35791,44.861816],[21.384375,44.870068],[21.442188,44.873389],[21.519922,44.880811],[21.532324,44.900684],[21.533203,44.918848],[21.471973,44.941992],[21.409961,44.957715],[21.377734,44.973437],[21.357031,44.990771],[21.35293,45.008984],[21.371094,45.021387],[21.395898,45.022217],[21.420703,45.032959],[21.434473,45.075146],[21.467871,45.109863],[21.491797,45.122266],[21.490234,45.1479],[21.46543,45.171875],[21.431445,45.192529],[21.381738,45.205078],[21.226465,45.241309],[21.147852,45.291748],[21.099902,45.293555],[21.023828,45.321533],[20.941797,45.365332],[20.870801,45.427539],[20.794043,45.467871],[20.774219,45.484424],[20.772461,45.500098],[20.786523,45.51748],[20.786035,45.536475],[20.76582,45.597461],[20.779297,45.662012],[20.775781,45.72251],[20.775,45.749805],[20.760156,45.758105],[20.746875,45.748975],[20.727832,45.737402],[20.709277,45.735254],[20.652734,45.779395],[20.581152,45.869482],[20.532617,45.899512],[20.437988,45.940771],[20.358594,45.975488],[20.301367,46.050684],[20.241797,46.108594],[20.280957,46.133008],[20.508105,46.166943],[20.613672,46.133496],[20.661035,46.145654],[20.707422,46.172803],[20.732715,46.194434],[20.737402,46.21748],[20.760254,46.24624],[20.837012,46.259717],[21.039844,46.242236],[21.12168,46.282422],[21.151953,46.304346],[21.17041,46.352686],[21.191797,46.391553],[21.264551,46.412305],[21.263281,46.447754],[21.252246,46.486377],[21.294531,46.572461],[21.320215,46.607812],[21.361328,46.620752],[21.411035,46.647852],[21.49707,46.704297],[21.477051,46.753369],[21.494434,46.789746],[21.58418,46.878369],[21.652637,46.96377],[21.651465,47.006543],[21.661426,47.043896],[21.721777,47.084814],[21.785449,47.138135],[21.869336,47.30459],[21.899219,47.332568],[21.954297,47.364258],[21.995313,47.395703],[21.999707,47.505029],[22.037988,47.536621],[22.111914,47.572021],[22.185059,47.629053],[22.244629,47.696387],[22.290625,47.727832],[22.351465,47.73623],[22.41748,47.762646],[22.491406,47.772559],[22.562891,47.75957],[22.608398,47.766309],[22.676758,47.799023],[22.851758,47.922559],[22.87666,47.947266],[22.912891,47.964258],[23.054785,48.006543],[23.09082,48.049121],[23.139453,48.087402],[23.202637,48.084521],[23.408203,47.98999],[23.628711,47.99585],[23.669043,47.992334],[23.682031,47.990381],[23.708984,47.982617],[24.001855,47.935791],[24.047363,47.941016],[24.059766,47.944775],[24.177734,47.906055],[24.281934,47.911182],[24.380957,47.938037],[24.484082,47.947119],[24.578906,47.931055],[24.650977,47.876514],[24.837891,47.76084],[24.893359,47.717773],[24.979102,47.724121],[25.073828,47.745703],[25.169629,47.823096],[25.464258,47.910791],[25.689258,47.932471],[25.908691,47.967578],[26.162695,47.992529],[26.23623,48.064355],[26.276953,48.113232],[26.305664,48.20376],[26.442383,48.22998],[26.572461,48.248486],[26.618945,48.259863],[26.71377,48.263477],[26.787305,48.255811],[26.900977,48.211133],[26.980762,48.155029],[27.012207,48.110498],[27.080371,48.047656],[27.152051,47.959277],[27.230859,47.841748],[27.248145,47.782227],[27.27793,47.717969],[27.336914,47.639746],[27.449219,47.553125],[27.464844,47.53667],[27.51582,47.475635],[27.614063,47.340527],[27.696191,47.286426],[27.767969,47.227588],[27.802344,47.168311],[27.853809,47.114502],[27.974219,47.043213],[28.071777,46.978418],[28.15,46.79209],[28.204688,46.706396],[28.239453,46.64082],[28.222656,46.508057],[28.244336,46.45127],[28.199609,46.347559],[28.119141,46.138672],[28.099707,45.972607],[28.113574,45.883057],[28.115527,45.825537],[28.134961,45.788867],[28.15625,45.713086],[28.159766,45.647119],[28.130859,45.628271],[28.090332,45.612744],[28.074707,45.598975],[28.111914,45.569141],[28.1625,45.51377],[28.2125,45.450439]]]},"properties":{"iso":"RO","name":"Romania","layer":"ottoman-peak","ottoman_era":"1683"}},{"type":"Feature","geometry":{"type":"Polygon","coordinates":[[[19.194336,43.533301],[19.191602,43.521045],[19.196484,43.48501],[19.21875,43.449951],[19.298242,43.413965],[19.414648,43.342822],[19.551563,43.212256],[19.614453,43.173437],[19.670996,43.163965],[19.781152,43.109766],[19.858008,43.096533],[19.944043,43.081641],[20.167871,42.968506],[20.268457,42.935449],[20.339941,42.892871],[20.347656,42.852783],[20.344336,42.82793],[20.215137,42.798828],[20.192578,42.754639],[20.12998,42.759766],[20.054297,42.760059],[20.029492,42.732031],[20.065723,42.68584],[20.089258,42.631543],[20.070312,42.55708],[20.063965,42.547266],[20.045703,42.549902],[19.939063,42.506689],[19.859766,42.486328],[19.788281,42.476172],[19.754492,42.496924],[19.737793,42.525146],[19.740723,42.606934],[19.727832,42.634521],[19.703418,42.647949],[19.654492,42.628564],[19.597461,42.56543],[19.544531,42.491943],[19.465137,42.415381],[19.399609,42.341895],[19.329004,42.249268],[19.280664,42.172559],[19.330859,42.129297],[19.361426,42.069092],[19.352148,42.024023],[19.361133,41.997754],[19.345508,41.918848],[19.342383,41.869092],[19.186426,41.948633],[19.122266,42.060498],[18.894238,42.249463],[18.63291,42.378076],[18.619043,42.398389],[18.633398,42.423145],[18.645898,42.442725],[18.591602,42.444189],[18.553516,42.428516],[18.51748,42.43291],[18.47666,42.481104],[18.438086,42.522949],[18.436328,42.559717],[18.453906,42.564502],[18.480078,42.579199],[18.534961,42.620117],[18.545898,42.641602],[18.543262,42.67417],[18.466016,42.777246],[18.455078,42.844092],[18.443848,42.968457],[18.460156,42.9979],[18.488477,43.012158],[18.623633,43.027686],[18.621875,43.124609],[18.62998,43.153662],[18.656836,43.193945],[18.674219,43.230811],[18.749219,43.283545],[18.851074,43.346338],[18.895605,43.348193],[18.934668,43.339453],[18.978711,43.2854],[19.02666,43.292432],[19.036719,43.357324],[18.973828,43.442383],[18.940234,43.496729],[18.950684,43.52666],[18.974219,43.542334],[19.02832,43.53252],[19.080078,43.517725],[19.112793,43.527734],[19.164355,43.535449],[19.194336,43.533301]]]},"properties":{"iso":"ME","name":"Montenegro","layer":"ottoman-peak","ottoman_era":"1683"}},{"type":"Feature","geometry":{"type":"Polygon","coordinates":[[[21.5625,42.24751],[21.618262,42.242139],[21.739258,42.267725],[21.814648,42.303125],[21.853027,42.308398],[21.904102,42.32207],[21.977539,42.320068],[22.052051,42.304639],[22.14668,42.325],[22.239746,42.358154],[22.277051,42.349854],[22.317383,42.321729],[22.344043,42.313965],[22.498242,42.165088],[22.582715,42.104834],[22.682324,42.059131],[22.796094,42.025684],[22.836816,41.993604],[22.90918,41.835205],[22.943945,41.775098],[22.991992,41.757178],[23.003613,41.739844],[23.005664,41.716943],[22.951465,41.605615],[22.929688,41.356104],[22.916016,41.336279],[22.859277,41.337354],[22.783887,41.331982],[22.755078,41.312744],[22.724805,41.178516],[22.603613,41.140186],[22.493555,41.118506],[22.400781,41.123389],[22.237695,41.155176],[22.184473,41.158643],[22.138867,41.140527],[21.993359,41.130957],[21.929492,41.107422],[21.779492,40.950439],[21.627539,40.896338],[21.575781,40.868945],[21.459668,40.903613],[21.404102,40.907178],[21.32373,40.867139],[21.147559,40.863135],[21.1,40.856152],[20.964258,40.849902],[20.958594,40.871533],[20.933496,40.903125],[20.870215,40.91792],[20.74082,40.905273],[20.709277,40.928369],[20.656055,41.06167],[20.614453,41.083057],[20.567871,41.127832],[20.488965,41.272607],[20.487012,41.336084],[20.492383,41.391406],[20.448633,41.521289],[20.475586,41.554102],[20.516211,41.574756],[20.516602,41.627051],[20.505176,41.706494],[20.553125,41.862354],[20.566211,41.873682],[20.578516,41.866211],[20.694922,41.853809],[20.725,41.873535],[20.744141,41.904297],[20.750391,42.018359],[20.778125,42.071045],[21.059766,42.171289],[21.14248,42.175],[21.206055,42.128955],[21.256348,42.099512],[21.286621,42.100391],[21.297559,42.130078],[21.331738,42.187158],[21.389551,42.219824],[21.56084,42.247656],[21.5625,42.24751]]]},"properties":{"iso":"MK","name":"North Macedonia","layer":"ottoman-peak","ottoman_era":"1683"}},{"type":"Feature","geometry":{"type":"Polygon","coordinates":[[[9.51875,30.229395],[9.637988,30.282324],[9.807422,30.342236],[9.89502,30.387305],[9.93252,30.425342],[10.059766,30.580078],[10.125977,30.665967],[10.216406,30.783203],[10.256055,30.864941],[10.257031,30.94082],[10.243359,31.032129],[10.172656,31.250977],[10.114941,31.46377],[10.159863,31.545801],[10.195996,31.585107],[10.274609,31.684961],[10.306055,31.704834],[10.475781,31.736035],[10.543652,31.802539],[10.595508,31.885742],[10.608887,31.929541],[10.683008,31.975391],[10.771582,32.021191],[10.826367,32.080664],[11.005176,32.172705],[11.168262,32.256738],[11.358008,32.345215],[11.50498,32.413672],[11.535938,32.47334],[11.533789,32.524951],[11.453906,32.642578],[11.453906,32.781689],[11.45918,32.897363],[11.467188,32.965723],[11.502441,33.155566],[11.50459,33.181934],[11.657129,33.118896],[11.813477,33.093701],[12.279883,32.858545],[12.427051,32.829102],[12.753516,32.801074],[13.138086,32.897363],[13.283496,32.914648],[13.536328,32.824268],[13.647754,32.798828],[13.835352,32.791797],[14.155664,32.709766],[14.237109,32.68125],[14.423828,32.550293],[14.513379,32.511084],[15.176563,32.391162],[15.266895,32.31167],[15.359082,32.159668],[15.363086,31.971191],[15.414062,31.834229],[15.496387,31.656787],[15.595801,31.531104],[15.705957,31.426416],[15.832227,31.360986],[16.123047,31.264453],[16.450977,31.227295],[16.781543,31.214746],[17.349219,31.081494],[17.830469,30.927588],[17.949316,30.851904],[18.19043,30.777295],[18.669824,30.415674],[18.936426,30.29043],[19.12373,30.266113],[19.291699,30.288086],[19.589844,30.41377],[19.713281,30.488379],[20.013184,30.800684],[20.111523,30.963721],[20.150977,31.078613],[20.141113,31.195508],[20.103809,31.300537],[20.02002,31.410645],[19.96123,31.556006],[19.926367,31.817529],[19.973438,31.999072],[20.030957,32.107861],[20.121484,32.21875],[20.370605,32.430762],[20.621094,32.580176],[21.062305,32.775537],[21.31875,32.777686],[21.424707,32.79917],[21.635938,32.937305],[21.721387,32.94248],[21.839453,32.908643],[22.187402,32.918262],[22.340625,32.879883],[22.523438,32.793945],[22.754102,32.740527],[22.916895,32.687158],[23.090625,32.61875],[23.129688,32.448145],[23.110449,32.397412],[23.10625,32.331445],[23.286328,32.213818],[23.797656,32.158691],[23.898438,32.127197],[24.038965,32.037012],[24.129688,32.009229],[24.479785,31.996533],[24.683887,32.015967],[24.878516,31.984277],[24.950684,31.953711],[25.025,31.88335],[25.115039,31.712305],[25.150488,31.65498],[25.112012,31.626904],[25.057227,31.567187],[25.022656,31.514014],[24.92998,31.42749],[24.852734,31.334814],[24.859961,31.19917],[24.877539,31.06123],[24.929492,30.926465],[24.973926,30.776562],[24.961426,30.678516],[24.923047,30.558008],[24.877539,30.45752],[24.726465,30.250586],[24.703223,30.201074],[24.711621,30.131543],[24.803711,29.886035],[24.81084,29.80874],[24.865918,29.570264],[24.916113,29.37627],[24.97168,29.223828],[24.980273,29.181885],[24.980273,28.957324],[24.980273,28.732764],[24.980273,28.508203],[24.980273,28.283643],[24.980273,28.059082],[24.980273,27.834521],[24.980273,27.609961],[24.980273,27.3854],[24.980273,27.16084],[24.980273,26.93623],[24.980273,26.71167],[24.980273,26.487109],[24.980273,26.262549],[24.980273,26.037988],[24.980273,25.813428],[24.980273,25.588867],[24.980273,25.364307],[24.980273,25.139746],[24.980273,24.915186],[24.980273,24.690625],[24.980273,24.466064],[24.980273,24.241504],[24.980273,24.016943],[24.980273,23.792383],[24.980273,23.567822],[24.980273,23.343213],[24.980273,23.118652],[24.980273,22.894092],[24.980273,22.669531],[24.980273,22.444971],[24.980273,22.22041],[24.980273,21.99585],[24.980078,21.497559],[24.979883,20.999219],[24.979688,20.500928],[24.979492,20.002588],[24.976367,20.000781],[24.973242,19.999023],[24.970215,19.997266],[24.966992,19.995459],[24.72041,19.995557],[24.473633,19.995703],[24.226953,19.99585],[23.980273,19.995947],[23.980273,19.871094],[23.980273,19.746289],[23.980273,19.621484],[23.980273,19.496631],[23.50127,19.733203],[23.022168,19.969775],[22.543066,20.206348],[22.064063,20.44292],[21.584961,20.679492],[21.105859,20.916113],[20.626758,21.152637],[20.147656,21.389258],[19.668555,21.62583],[19.189453,21.862402],[18.710449,22.098975],[18.231348,22.335547],[17.752246,22.572119],[17.273242,22.808691],[16.794141,23.045264],[16.315039,23.281836],[15.984082,23.445215],[15.627148,23.285742],[15.347461,23.160693],[14.979004,22.996191],[14.978906,22.996289],[14.555664,22.78252],[14.230762,22.618457],[14.215527,22.619678],[14.200684,22.62373],[13.862695,22.9021],[13.598633,23.119531],[13.48125,23.180176],[12.983594,23.29126],[12.48877,23.40166],[11.967871,23.517871],[11.873047,23.694824],[11.766992,23.892578],[11.624219,24.139697],[11.536914,24.29082],[11.507617,24.314355],[11.108203,24.434033],[10.686133,24.551367],[10.438965,24.480225],[10.395898,24.485596],[10.325781,24.530225],[10.255859,24.591016],[10.218652,24.676221],[10.119531,24.790234],[10.028125,25.051025],[10.019043,25.258545],[10.000684,25.33208],[9.781055,25.624268],[9.58125,25.890137],[9.448242,26.067139],[9.422363,26.14707],[9.437891,26.245508],[9.491406,26.33374],[9.684961,26.438232],[9.859375,26.551953],[9.883203,26.630811],[9.894434,26.847949],[9.837109,26.91582],[9.79541,27.044775],[9.752539,27.219336],[9.747559,27.330859],[9.825293,27.552979],[9.916016,27.785693],[9.858203,28.043311],[9.815625,28.560205],[9.842578,28.966992],[9.820703,29.114795],[9.805273,29.176953],[9.745898,29.368945],[9.672656,29.566992],[9.640137,29.636426],[9.546191,29.795947],[9.391016,29.993652],[9.310254,30.115234],[9.420996,30.179297],[9.51875,30.229395]]]},"properties":{"iso":"LY","name":"Libya","layer":"ottoman-peak","ottoman_era":"1683"}},{"type":"Feature","geometry":{"type":"Polygon","coordinates":[[[35.97627,34.629199],[36.151074,34.628613],[36.263574,34.632861],[36.296289,34.678711],[36.383887,34.65791],[36.433008,34.613477],[36.388672,34.566895],[36.32627,34.51333],[36.329883,34.499609],[36.376465,34.495166],[36.455566,34.466162],[36.504395,34.432373],[36.584961,34.22124],[36.535156,34.134326],[36.45752,34.056836],[36.422852,34.049854],[36.354883,34.011328],[36.297852,33.958643],[36.277832,33.925293],[36.282227,33.894189],[36.362793,33.855127],[36.365039,33.839355],[36.348535,33.827051],[36.283398,33.835596],[36.199414,33.839551],[36.149805,33.839502],[36.092188,33.831592],[36.018848,33.783936],[35.986133,33.752637],[35.968457,33.732422],[35.942383,33.667578],[35.97168,33.623096],[36.02666,33.597949],[36.034473,33.585059],[36.022266,33.5625],[35.967578,33.53457],[35.926563,33.500293],[35.914746,33.465381],[35.869141,33.431738],[35.840723,33.415674],[35.7875,33.369775],[35.734473,33.332617],[35.627246,33.275049],[35.60293,33.240625],[35.579297,33.271484],[35.53252,33.250488],[35.493164,33.119482],[35.41123,33.075684],[35.308887,33.079541],[35.22334,33.091992],[35.108594,33.083691],[35.155078,33.16001],[35.203516,33.258984],[35.251367,33.392627],[35.335742,33.503467],[35.51084,33.879736],[35.611816,34.032178],[35.647852,34.248242],[35.804297,34.437402],[35.921387,34.493311],[35.97793,34.547412],[35.97627,34.629199]]]},"properties":{"iso":"LB","name":"Lebanon","layer":"ottoman-peak","ottoman_era":"1683"}},{"type":"Feature","geometry":{"type":"Polygon","coordinates":[[[20.344336,42.82793],[20.468848,42.85791],[20.486816,42.879053],[20.458398,42.924561],[20.475098,42.953027],[20.624023,43.03418],[20.648535,43.070947],[20.657617,43.099854],[20.637598,43.130371],[20.609668,43.178418],[20.623145,43.198633],[20.700586,43.226367],[20.763379,43.258594],[20.800586,43.261084],[20.823828,43.237939],[20.823828,43.213965],[20.844434,43.173437],[20.890723,43.15166],[20.967676,43.116016],[21.057031,43.091699],[21.127051,43.043018],[21.222656,42.956201],[21.237109,42.913232],[21.323145,42.874707],[21.403027,42.831543],[21.390625,42.751416],[21.6625,42.681494],[21.723828,42.681982],[21.75293,42.669824],[21.752148,42.651514],[21.730664,42.595459],[21.619043,42.423242],[21.609863,42.387451],[21.52998,42.35],[21.518945,42.328418],[21.541602,42.280811],[21.5625,42.24751],[21.56084,42.247656],[21.389551,42.219824],[21.331738,42.187158],[21.297559,42.130078],[21.286621,42.100391],[21.256348,42.099512],[21.206055,42.128955],[21.14248,42.175],[21.059766,42.171289],[20.778125,42.071045],[20.750391,42.018359],[20.744141,41.904297],[20.725,41.873535],[20.694922,41.853809],[20.578516,41.866211],[20.566211,41.873682],[20.581445,41.917432],[20.575391,42.013086],[20.522852,42.171484],[20.485449,42.223389],[20.408301,42.274951],[20.348242,42.308789],[20.240527,42.338965],[20.185742,42.425879],[20.103516,42.524658],[20.063965,42.547266],[20.070312,42.55708],[20.089258,42.631543],[20.065723,42.68584],[20.029492,42.732031],[20.054297,42.760059],[20.12998,42.759766],[20.192578,42.754639],[20.215137,42.798828],[20.344336,42.82793]]]},"properties":{"iso":"XK","name":"Kosovo","layer":"ottoman-peak","ottoman_era":"1683"}},{"type":"Feature","geometry":{"type":"Polygon","coordinates":[[[35.787305,32.734912],[35.894727,32.71377],[35.956445,32.666699],[36.059473,32.533789],[36.219727,32.495117],[36.284277,32.457471],[36.37207,32.386914],[36.479199,32.361328],[36.818359,32.317285],[37.088965,32.465527],[37.317578,32.590771],[37.577441,32.733057],[37.754102,32.829834],[38.055762,32.994873],[38.254297,33.099219],[38.515625,33.236621],[38.773535,33.372217],[38.84502,33.150879],[38.914844,32.934668],[38.987402,32.710693],[39.057813,32.493164],[38.981641,32.472559],[39.041406,32.305664],[39.140039,32.331201],[39.247461,32.350977],[39.292773,32.243848],[39.14541,32.124512],[38.99707,32.007471],[38.962305,31.994922],[38.769629,31.946484],[38.375488,31.847461],[38.111426,31.781152],[37.773828,31.696338],[37.493359,31.625879],[37.215625,31.556104],[36.958594,31.491504],[37.105273,31.355176],[37.329492,31.146826],[37.479004,31.007764],[37.655469,30.828955],[37.812988,30.669287],[37.980078,30.5],[37.862891,30.442627],[37.669727,30.348145],[37.649902,30.330957],[37.633594,30.313281],[37.553613,30.14458],[37.490723,30.011719],[37.469238,29.995068],[37.199414,29.946289],[36.927051,29.89707],[36.755273,29.866016],[36.703906,29.831641],[36.591797,29.666113],[36.476074,29.495117],[36.282813,29.355371],[36.068457,29.200537],[36.01543,29.190479],[35.860352,29.214258],[35.595313,29.254883],[35.33916,29.294092],[35.16377,29.320947],[34.950781,29.353516],[34.982227,29.484473],[34.973438,29.555029],[35.023926,29.787061],[35.053418,29.896924],[35.068164,29.977881],[35.141602,30.141699],[35.132617,30.195312],[35.148145,30.384326],[35.140625,30.420898],[35.174023,30.523926],[35.236621,30.673486],[35.297852,30.802246],[35.320117,30.860205],[35.383008,30.982275],[35.439258,31.132422],[35.409668,31.214453],[35.400684,31.230518],[35.423535,31.324854],[35.422852,31.325391],[35.450586,31.479297],[35.46543,31.562354],[35.499414,31.672363],[35.558984,31.765527],[35.531445,31.984912],[35.534766,32.103027],[35.57207,32.237891],[35.551465,32.395508],[35.569043,32.619873],[35.572852,32.640869],[35.594531,32.668018],[35.61123,32.68208],[35.734473,32.728906],[35.787305,32.734912]]]},"properties":{"iso":"JO","name":"Jordan","layer":"ottoman-peak","ottoman_era":"1683"}},{"type":"Feature","geometry":{"type":"Polygon","coordinates":[[[35.840723,33.415674],[35.816125,33.361879],[35.792531,33.334107],[35.785024,33.291089],[35.800038,33.256121],[35.808618,33.208577],[35.826849,33.195117],[35.833283,33.163702],[35.817197,33.133173],[35.824704,33.108024],[35.84508,33.084665],[35.859022,32.989367],[35.887977,32.944379],[35.841863,32.875954],[35.833283,32.820094],[35.787305,32.734912],[35.734473,32.728906],[35.61123,32.68208],[35.594531,32.668018],[35.572852,32.640869],[35.569043,32.619873],[35.551465,32.395508],[35.484375,32.40166],[35.402637,32.450635],[35.386719,32.493018],[35.362109,32.507471],[35.303809,32.512939],[35.193262,32.534424],[35.065039,32.460449],[35.010547,32.338184],[34.999512,32.281055],[34.955957,32.160937],[34.971387,32.087109],[34.978809,31.991602],[34.989746,31.913281],[34.97832,31.866406],[34.953809,31.84126],[34.961133,31.82334],[34.983008,31.816797],[35.053223,31.837939],[35.127148,31.816748],[35.198047,31.776318],[35.203711,31.75],[35.153418,31.734473],[35.034668,31.673242],[34.950977,31.602295],[34.929199,31.536572],[34.872754,31.396875],[34.880469,31.368164],[34.907813,31.351318],[35.101172,31.366211],[35.27666,31.422803],[35.408691,31.48291],[35.450586,31.479297],[35.422852,31.325391],[35.423535,31.324854],[35.400684,31.230518],[35.409668,31.214453],[35.439258,31.132422],[35.383008,30.982275],[35.320117,30.860205],[35.297852,30.802246],[35.236621,30.673486],[35.174023,30.523926],[35.140625,30.420898],[35.148145,30.384326],[35.132617,30.195312],[35.141602,30.141699],[35.068164,29.977881],[35.053418,29.896924],[35.023926,29.787061],[34.973438,29.555029],[34.904297,29.477344],[34.869824,29.563916],[34.791113,29.812109],[34.735059,29.982031],[34.658594,30.191455],[34.529688,30.446045],[34.517773,30.507373],[34.489941,30.596289],[34.400977,30.827832],[34.328516,30.99502],[34.245313,31.208301],[34.34834,31.29292],[34.350195,31.362744],[34.525586,31.525635],[34.524121,31.54165],[34.477344,31.584863],[34.483984,31.592285],[34.678418,31.895703],[34.803809,32.196338],[34.921875,32.614062],[35.005859,32.826611],[35.077051,32.967187],[35.108594,33.083691],[35.22334,33.091992],[35.308887,33.079541],[35.41123,33.075684],[35.493164,33.119482],[35.53252,33.250488],[35.579297,33.271484],[35.60293,33.240625],[35.627246,33.275049],[35.734473,33.332617],[35.7875,33.369775],[35.840723,33.415674]]]},"properties":{"iso":"IL","name":"Israel","layer":"ottoman-peak","ottoman_era":"1683"}},{"type":"Feature","geometry":{"type":"MultiPolygon","coordinates":[[[[34.477344,31.584863],[34.524121,31.54165],[34.525586,31.525635],[34.350195,31.362744],[34.34834,31.29292],[34.245313,31.208301],[34.2125,31.292285],[34.198145,31.322607],[34.387305,31.483789],[34.477344,31.584863]]],[[[35.551465,32.395508],[35.57207,32.237891],[35.534766,32.103027],[35.531445,31.984912],[35.558984,31.765527],[35.499414,31.672363],[35.46543,31.562354],[35.450586,31.479297],[35.408691,31.48291],[35.27666,31.422803],[35.101172,31.366211],[34.907813,31.351318],[34.880469,31.368164],[34.872754,31.396875],[34.929199,31.536572],[34.950977,31.602295],[35.034668,31.673242],[35.153418,31.734473],[35.203711,31.75],[35.198047,31.776318],[35.127148,31.816748],[35.053223,31.837939],[34.983008,31.816797],[34.961133,31.82334],[34.953809,31.84126],[34.97832,31.866406],[34.989746,31.913281],[34.978809,31.991602],[34.971387,32.087109],[34.955957,32.160937],[34.999512,32.281055],[35.010547,32.338184],[35.065039,32.460449],[35.193262,32.534424],[35.303809,32.512939],[35.362109,32.507471],[35.386719,32.493018],[35.402637,32.450635],[35.484375,32.40166],[35.551465,32.395508]]]]},"properties":{"iso":"PS","name":"Palestine","layer":"ottoman-peak","ottoman_era":"1683"}},{"type":"Feature","geometry":{"type":"Polygon","coordinates":[[[42.358984,37.108594],[42.455859,37.128711],[42.635449,37.249268],[42.741113,37.361914],[42.774609,37.371875],[42.869141,37.334912],[42.936621,37.324756],[43.09248,37.367383],[43.185156,37.344873],[43.263086,37.316504],[43.306738,37.314648],[43.51582,37.244531],[43.567969,37.23584],[43.675781,37.227246],[43.836426,37.223535],[43.940039,37.269287],[44.013184,37.313525],[44.064648,37.312451],[44.114453,37.301855],[44.15625,37.282959],[44.191797,37.249854],[44.208398,37.202637],[44.20166,37.051807],[44.21748,37.011865],[44.245703,36.983301],[44.281836,36.978027],[44.325586,37.010742],[44.401953,37.058496],[44.495996,37.110547],[44.566016,37.158252],[44.605957,37.176025],[44.669336,37.173584],[44.730957,37.165283],[44.765137,37.142432],[44.76543,37.13501],[44.798438,37.063867],[44.880859,36.799316],[44.927832,36.765918],[44.981445,36.737695],[45.019238,36.698389],[45.033984,36.658887],[45.029395,36.597559],[45.031055,36.526074],[45.053125,36.471631],[45.083789,36.430029],[45.112402,36.409277],[45.155273,36.407373],[45.206543,36.397168],[45.241113,36.355957],[45.350879,36.054639],[45.361621,36.015332],[45.407715,36.002783],[45.483789,36.008545],[45.561621,35.977197],[45.64502,35.928369],[45.723438,35.83667],[45.776367,35.821826],[45.941406,35.8354],[46.16748,35.820557],[46.273438,35.773242],[46.2625,35.744141],[46.180957,35.711377],[46.037402,35.673145],[45.99502,35.608105],[45.971094,35.52417],[45.975391,35.476807],[46.010645,35.424805],[46.112109,35.32168],[46.117773,35.284277],[46.135742,35.232275],[46.154688,35.196729],[46.133789,35.127637],[46.041797,35.080176],[45.920898,35.028516],[45.678125,34.798437],[45.660059,34.748779],[45.661523,34.612695],[45.6375,34.573828],[45.56084,34.574512],[45.500781,34.581592],[45.497754,34.533887],[45.459375,34.470361],[45.437598,34.415137],[45.526855,34.284668],[45.542773,34.215527],[45.528613,34.152539],[45.446094,34.044043],[45.39707,33.97085],[45.408984,33.954492],[45.473242,33.925488],[45.67373,33.68667],[45.738281,33.602832],[45.822852,33.624805],[45.854492,33.62334],[45.879395,33.609766],[45.894727,33.581543],[45.894727,33.545654],[45.873242,33.491992],[45.981055,33.470117],[46.019922,33.415723],[46.145898,33.229639],[46.141113,33.174414],[46.080762,33.086523],[46.080469,33.028223],[46.093066,32.975879],[46.112793,32.957666],[46.298242,32.950244],[46.377051,32.929248],[46.569922,32.833936],[46.789062,32.687988],[46.968555,32.568408],[47.121387,32.466602],[47.285156,32.474023],[47.329785,32.455518],[47.371289,32.42373],[47.418164,32.340088],[47.511914,32.15083],[47.591504,32.087988],[47.714551,31.936426],[47.82998,31.794434],[47.753906,31.601367],[47.679492,31.400586],[47.679492,31.141504],[47.679492,31.002393],[47.836328,30.996436],[48.010645,30.989795],[48.012012,30.823633],[48.013477,30.656445],[48.014941,30.465625],[48.066113,30.457666],[48.147559,30.416846],[48.182422,30.355029],[48.226172,30.321338],[48.278906,30.31582],[48.331055,30.285449],[48.382617,30.230176],[48.401367,30.18833],[48.387598,30.159863],[48.398633,30.109619],[48.43457,30.037598],[48.478516,30.003809],[48.546484,29.962354],[48.454199,29.938477],[48.35459,29.956738],[48.141699,30.040918],[48.072754,30.043213],[47.98252,30.011328],[47.978711,29.982812],[47.753906,30.076611],[47.672754,30.095605],[47.64375,30.097314],[47.514844,30.096484],[47.331348,30.079687],[47.223242,30.041504],[47.148242,30.000977],[47.114355,29.961328],[47.102051,29.93999],[47.043652,29.822998],[46.975977,29.672852],[46.905859,29.5375],[46.769336,29.347461],[46.69375,29.259668],[46.531445,29.09624],[46.356445,29.063672],[45.949707,29.09585],[45.498926,29.131543],[45.050293,29.16709],[44.716504,29.193604],[44.69082,29.202344],[44.360742,29.435254],[44.099609,29.619336],[43.77373,29.849219],[43.44082,30.083984],[43.103125,30.322217],[42.857715,30.495215],[42.559766,30.717773],[42.288574,30.92041],[42.074414,31.080371],[41.799707,31.220361],[41.585059,31.329736],[41.272461,31.489014],[41.022461,31.616357],[40.808398,31.725439],[40.478906,31.893359],[40.369336,31.938965],[40.027832,31.99502],[39.704102,32.042529],[39.368652,32.091748],[39.14541,32.124512],[39.292773,32.243848],[39.247461,32.350977],[39.140039,32.331201],[39.041406,32.305664],[38.981641,32.472559],[39.057813,32.493164],[38.987402,32.710693],[38.914844,32.934668],[38.84502,33.150879],[38.773535,33.372217],[39.056738,33.514014],[39.268359,33.62002],[39.564453,33.768359],[39.85,33.911377],[40.121973,34.047656],[40.421484,34.197754],[40.689453,34.332031],[40.935059,34.386572],[40.987012,34.429053],[41.099023,34.612305],[41.194727,34.768994],[41.199219,34.805322],[41.199609,35.027393],[41.216406,35.288184],[41.24834,35.42749],[41.30332,35.550635],[41.354102,35.64043],[41.359375,35.724609],[41.352637,35.809961],[41.300195,35.938965],[41.245605,36.073389],[41.251758,36.203027],[41.261816,36.272461],[41.295996,36.38335],[41.354199,36.464404],[41.416797,36.514648],[41.650195,36.566406],[41.788574,36.597168],[41.974023,36.74082],[42.083984,36.826025],[42.237305,36.961133],[42.350098,37.060596],[42.359082,37.09502],[42.358984,37.108594]]]},"properties":{"iso":"IQ","name":"Iraq","layer":"ottoman-peak","ottoman_era":"1683"}},{"type":"Feature","geometry":{"type":"Polygon","coordinates":[[[22.131836,48.405322],[22.227148,48.413428],[22.231152,48.412158],[22.253711,48.407373],[22.269434,48.360889],[22.272168,48.358008],[22.295117,48.327295],[22.316699,48.286621],[22.350195,48.256055],[22.423828,48.243311],[22.520117,48.205371],[22.582422,48.134033],[22.676367,48.104395],[22.683105,48.103613],[22.701563,48.107031],[22.769141,48.109619],[22.782227,48.095215],[22.83623,48.060303],[22.857227,48.029541],[22.846484,47.99707],[22.856055,47.960303],[22.87666,47.947266],[22.851758,47.922559],[22.676758,47.799023],[22.608398,47.766309],[22.562891,47.75957],[22.491406,47.772559],[22.41748,47.762646],[22.351465,47.73623],[22.290625,47.727832],[22.244629,47.696387],[22.185059,47.629053],[22.111914,47.572021],[22.037988,47.536621],[21.999707,47.505029],[21.995313,47.395703],[21.954297,47.364258],[21.899219,47.332568],[21.869336,47.30459],[21.785449,47.138135],[21.721777,47.084814],[21.661426,47.043896],[21.651465,47.006543],[21.652637,46.96377],[21.58418,46.878369],[21.494434,46.789746],[21.477051,46.753369],[21.49707,46.704297],[21.411035,46.647852],[21.361328,46.620752],[21.320215,46.607812],[21.294531,46.572461],[21.252246,46.486377],[21.263281,46.447754],[21.264551,46.412305],[21.191797,46.391553],[21.17041,46.352686],[21.151953,46.304346],[21.12168,46.282422],[21.039844,46.242236],[20.837012,46.259717],[20.760254,46.24624],[20.737402,46.21748],[20.732715,46.194434],[20.707422,46.172803],[20.661035,46.145654],[20.613672,46.133496],[20.508105,46.166943],[20.280957,46.133008],[20.241797,46.108594],[20.210156,46.126025],[20.161426,46.141895],[19.934082,46.161475],[19.844434,46.145898],[19.724512,46.151904],[19.613477,46.169189],[19.530762,46.155176],[19.45752,46.087354],[19.421289,46.064453],[19.392871,46.049805],[19.330273,46.028516],[19.278125,46.002881],[19.208398,45.984424],[19.146289,45.987012],[19.087305,46.016162],[19.066211,46.009521],[19.047656,45.982666],[19.015723,45.959717],[18.927832,45.931396],[18.905371,45.931738],[18.900293,45.931738],[18.833008,45.91084],[18.721777,45.899365],[18.666016,45.907471],[18.564648,45.813281],[18.533594,45.796143],[18.437305,45.767334],[18.358301,45.753027],[18.290625,45.764453],[18.263965,45.765479],[17.963867,45.770264],[17.807129,45.79043],[17.706445,45.827246],[17.639648,45.868359],[17.607031,45.91377],[17.529199,45.941309],[17.406348,45.951074],[17.310645,45.996143],[17.242188,46.076611],[17.149609,46.140332],[17.032715,46.187305],[16.939941,46.253662],[16.871484,46.339307],[16.748047,46.416406],[16.569922,46.48501],[16.516211,46.499902],[16.505664,46.52207],[16.418457,46.607227],[16.38125,46.638672],[16.38457,46.680811],[16.367188,46.704785],[16.335449,46.721631],[16.318457,46.78252],[16.308496,46.827979],[16.283594,46.857275],[16.093066,46.863281],[16.252539,46.971924],[16.331836,47.002197],[16.423926,46.996973],[16.453418,47.006787],[16.46123,47.022461],[16.476953,47.057861],[16.484766,47.09126],[16.492676,47.122656],[16.482813,47.140381],[16.438379,47.145898],[16.416895,47.223437],[16.439746,47.252734],[16.462598,47.273145],[16.434375,47.367432],[16.442871,47.399512],[16.514746,47.404541],[16.574414,47.424658],[16.623047,47.447559],[16.636621,47.476611],[16.676563,47.536035],[16.639746,47.608887],[16.432129,47.656299],[16.421289,47.674463],[16.469629,47.695068],[16.521094,47.724463],[16.550977,47.747363],[16.590918,47.750537],[16.647461,47.739014],[16.747559,47.686279],[16.785938,47.678662],[16.823047,47.693994],[16.862695,47.697266],[16.973438,47.695312],[17.066602,47.707568],[17.045605,47.76377],[17.045898,47.804541],[17.030078,47.837109],[17.039941,47.872949],[17.077734,47.900879],[17.089063,47.963623],[17.147363,48.005957],[17.174609,48.012061],[17.277246,48.004346],[17.301563,47.993359],[17.317285,47.990918],[17.480664,47.887598],[17.635254,47.809912],[17.761914,47.770166],[17.947949,47.766895],[18.145605,47.763428],[18.47627,47.777002],[18.724219,47.787158],[18.740625,47.806494],[18.778027,47.852881],[18.74834,47.892676],[18.750098,47.939453],[18.791895,48.000293],[18.91416,48.05083],[19.265137,48.073047],[19.466992,48.110693],[19.497461,48.162109],[19.564258,48.212842],[19.625391,48.223096],[19.70918,48.199805],[19.810059,48.155029],[19.898633,48.131348],[19.950391,48.146631],[20.128613,48.222021],[20.333789,48.295557],[20.475,48.495117],[20.490039,48.526904],[20.643164,48.549707],[20.866602,48.545654],[20.981152,48.519678],[21.067285,48.505908],[21.196387,48.510596],[21.382422,48.553467],[21.451367,48.552246],[21.504688,48.521875],[21.563184,48.495703],[21.602637,48.463672],[21.63252,48.418506],[21.648633,48.401465],[21.674609,48.378369],[21.721484,48.346582],[21.766992,48.338086],[22.111328,48.393359],[22.131836,48.405322]]]},"properties":{"iso":"HU","name":"Hungary","layer":"ottoman-peak","ottoman_era":"1683"}},{"type":"Feature","geometry":{"type":"MultiPolygon","coordinates":[[[[27.860156,36.553906],[27.838281,36.537988],[27.788086,36.583691],[27.785742,36.60752],[27.836816,36.634863],[27.8625,36.641162],[27.869824,36.62251],[27.869043,36.582666],[27.860156,36.553906]]],[[[20.612305,38.38335],[20.624707,38.267871],[20.695215,38.246191],[20.788867,38.14209],[20.780762,38.088818],[20.761328,38.070557],[20.606152,38.119727],[20.568945,38.097656],[20.523535,38.106641],[20.495508,38.16416],[20.49873,38.184375],[20.47334,38.218799],[20.452148,38.23418],[20.391016,38.188428],[20.352539,38.179883],[20.352246,38.221729],[20.408691,38.336768],[20.435059,38.356201],[20.481445,38.318213],[20.519629,38.332324],[20.54834,38.394531],[20.550293,38.456543],[20.563184,38.474951],[20.612305,38.38335]]],[[[20.888477,37.805371],[20.993945,37.708008],[20.909082,37.732129],[20.818555,37.664746],[20.703809,37.743457],[20.635059,37.823145],[20.619531,37.855029],[20.691504,37.929541],[20.758691,37.852979],[20.839844,37.840723],[20.888477,37.805371]]],[[[20.686719,38.608691],[20.647852,38.600977],[20.614355,38.60625],[20.583984,38.601709],[20.554688,38.582568],[20.55791,38.661865],[20.59248,38.760156],[20.634668,38.817578],[20.694141,38.844238],[20.719629,38.79917],[20.714844,38.63833],[20.686719,38.608691]]],[[[20.758691,38.329443],[20.709277,38.318604],[20.646387,38.414307],[20.623633,38.480322],[20.649707,38.483984],[20.674805,38.476318],[20.70127,38.451416],[20.701074,38.425928],[20.711621,38.398633],[20.73916,38.365771],[20.758691,38.329443]]],[[[20.07793,39.432715],[20.099609,39.376611],[19.975,39.411426],[19.883984,39.461523],[19.808887,39.585303],[19.648926,39.726172],[19.646484,39.76709],[19.707324,39.798096],[19.838574,39.820117],[19.891699,39.797266],[19.926074,39.77373],[19.936816,39.746729],[19.862207,39.692627],[19.84668,39.668115],[19.904102,39.619482],[19.903125,39.6],[19.927344,39.505908],[19.955273,39.47041],[20.027734,39.44209],[20.07793,39.432715]]],[[[23.41543,38.958643],[23.471973,38.850098],[23.525,38.813477],[23.63623,38.770215],[23.688477,38.764697],[23.878223,38.686572],[24.099023,38.670996],[24.127539,38.648486],[24.154688,38.588281],[24.199707,38.541016],[24.211035,38.504248],[24.1875,38.463428],[24.220117,38.338623],[24.275781,38.22002],[24.359668,38.1625],[24.463965,38.145117],[24.563281,38.14751],[24.588379,38.123975],[24.578516,38.020166],[24.536523,37.979736],[24.502344,37.969922],[24.472656,37.980518],[24.445801,38.00498],[24.416504,38.016553],[24.359473,38.018555],[24.317773,38.060352],[24.212012,38.117529],[24.192578,38.15166],[24.189063,38.204297],[24.144141,38.243066],[24.102832,38.316846],[24.063574,38.337207],[24.041895,38.374121],[24.040137,38.38999],[23.88623,38.400732],[23.758789,38.401221],[23.650781,38.443066],[23.617383,38.552539],[23.55332,38.581982],[23.505273,38.612939],[23.465234,38.655859],[23.364063,38.73501],[23.252148,38.801221],[23.143945,38.844824],[23.029102,38.873389],[22.935742,38.839648],[22.881348,38.847656],[22.870313,38.870508],[22.986328,38.915918],[23.145801,39.002686],[23.258203,39.031348],[23.312695,39.034912],[23.41543,38.958643]]],[[[23.779785,39.114404],[23.735156,39.080566],[23.666113,39.095361],[23.593945,39.208594],[23.779785,39.114404]]],[[[23.887988,39.158301],[23.841211,39.146582],[23.888086,39.226367],[23.970898,39.267725],[23.939746,39.200537],[23.887988,39.158301]]],[[[24.674707,38.809229],[24.569043,38.784814],[24.541016,38.788672],[24.564551,38.819434],[24.566406,38.832373],[24.461035,38.888623],[24.473438,38.96167],[24.485645,38.980273],[24.564063,38.942236],[24.58125,38.878857],[24.674707,38.809229]]],[[[24.774219,40.615186],[24.645898,40.579443],[24.515527,40.647021],[24.516699,40.687207],[24.585547,40.76875],[24.62334,40.79292],[24.719141,40.786279],[24.773633,40.730273],[24.786328,40.703857],[24.768652,40.658887],[24.774219,40.615186]]],[[[23.550977,37.925879],[23.511426,37.901172],[23.466797,37.902393],[23.435254,37.911475],[23.419336,37.93125],[23.439063,37.940674],[23.462207,37.980371],[23.483691,37.991113],[23.515527,37.986035],[23.534863,37.970215],[23.550977,37.925879]]],[[[23.053809,36.189795],[23.042188,36.146387],[22.939453,36.176221],[22.91084,36.220996],[22.905664,36.320312],[22.932617,36.36875],[22.950488,36.383936],[22.997852,36.328125],[23.09707,36.246582],[23.053809,36.189795]]],[[[27.176074,35.465283],[27.137891,35.409082],[27.099121,35.456445],[27.11582,35.511133],[27.070703,35.597754],[27.156055,35.72627],[27.158008,35.788672],[27.223145,35.820459],[27.207031,35.714453],[27.157227,35.629492],[27.208887,35.558936],[27.233594,35.478564],[27.176074,35.465283]]],[[[27.019727,36.959033],[26.919922,36.945215],[26.937695,37.024609],[26.888672,37.087256],[26.966602,37.0521],[27.016016,37.009668],[27.040137,37.001562],[27.03457,36.975977],[27.019727,36.959033]]],[[[26.949609,36.7271],[26.918359,36.725928],[26.955566,36.774219],[27.061133,36.840381],[27.214941,36.898633],[27.265625,36.905127],[27.352148,36.868896],[27.193164,36.809131],[27.150977,36.777588],[27.033594,36.770752],[26.949609,36.7271]]],[[[25.545898,36.967578],[25.456738,36.929688],[25.395898,36.984375],[25.361914,37.07041],[25.525293,37.196387],[25.564355,37.185107],[25.587891,37.152539],[25.584277,37.039307],[25.545898,36.967578]]],[[[25.278906,37.068408],[25.199414,36.991309],[25.133301,36.999658],[25.105469,37.034961],[25.146484,37.107422],[25.235059,37.148535],[25.275293,37.137842],[25.271484,37.08418],[25.278906,37.068408]]],[[[25.482422,36.392627],[25.435938,36.340088],[25.370508,36.358936],[25.397168,36.378955],[25.412891,36.404883],[25.414648,36.442285],[25.396875,36.465332],[25.408984,36.47373],[25.467383,36.435059],[25.482422,36.392627]]],[[[25.381738,36.674023],[25.364355,36.65835],[25.288672,36.721533],[25.259961,36.758447],[25.295898,36.78916],[25.406934,36.717334],[25.381738,36.674023]]],[[[26.824414,37.811426],[26.947363,37.778467],[26.981543,37.781982],[27.039648,37.77002],[27.055078,37.709277],[26.978125,37.700488],[26.844922,37.644727],[26.788281,37.656982],[26.720508,37.705469],[26.612891,37.710498],[26.581055,37.72373],[26.638672,37.780859],[26.743359,37.809766],[26.824414,37.811426]]],[[[26.029297,37.529395],[25.982422,37.525586],[25.996777,37.565576],[26.086328,37.634912],[26.211523,37.638281],[26.325586,37.673047],[26.351367,37.674316],[26.296875,37.61958],[26.204883,37.568506],[26.029297,37.529395]]],[[[25.859375,36.79043],[25.771094,36.782227],[25.743164,36.789746],[25.796777,36.807031],[25.834375,36.825391],[25.852441,36.847559],[25.941992,36.886572],[26.000684,36.937402],[26.064453,36.902734],[25.984668,36.879687],[25.859375,36.79043]]],[[[26.460645,36.5854],[26.381641,36.561523],[26.331445,36.511377],[26.27002,36.546924],[26.269824,36.59541],[26.337012,36.580566],[26.38418,36.607861],[26.37002,36.638574],[26.421289,36.624219],[26.460645,36.5854]]],[[[24.355957,37.576855],[24.288965,37.528271],[24.277441,37.601123],[24.32041,37.677734],[24.379102,37.682715],[24.400781,37.649023],[24.355957,37.576855]]],[[[24.435742,37.344434],[24.378906,37.314111],[24.397754,37.383447],[24.369727,37.419629],[24.394824,37.450391],[24.43125,37.475195],[24.448535,37.449561],[24.481445,37.408008],[24.435742,37.344434]]],[[[24.535742,36.76377],[24.5375,36.705029],[24.530664,36.683984],[24.325977,36.655615],[24.344922,36.722998],[24.357422,36.744287],[24.425195,36.712939],[24.450195,36.728955],[24.460352,36.747461],[24.535742,36.76377]]],[[[24.942871,37.493506],[24.937891,37.389697],[24.911523,37.390576],[24.896191,37.406592],[24.895313,37.446338],[24.906543,37.508887],[24.942871,37.493506]]],[[[24.991699,37.759619],[24.962207,37.692383],[24.884082,37.770508],[24.798535,37.824023],[24.766504,37.870703],[24.714355,37.898877],[24.700195,37.96167],[24.763379,37.9875],[24.79043,37.990137],[24.855078,37.913672],[24.956348,37.904785],[24.948438,37.857666],[24.980469,37.796924],[24.991699,37.759619]]],[[[25.255859,37.599609],[25.21875,37.535107],[25.156348,37.545068],[25.051953,37.614453],[25.016309,37.645947],[24.996484,37.676904],[25.039355,37.680664],[25.091797,37.647998],[25.225391,37.630664],[25.255859,37.599609]]],[[[24.720898,36.921436],[24.702637,36.91709],[24.676465,36.959277],[24.670996,36.998584],[24.681445,37.021631],[24.716113,37.023828],[24.763184,36.949219],[24.720898,36.921436]]],[[[26.094043,38.218066],[25.998535,38.161523],[25.891895,38.243311],[25.874316,38.269629],[25.952637,38.302637],[25.991406,38.353516],[25.959961,38.416016],[25.85127,38.508398],[25.846094,38.574023],[26.0125,38.601709],[26.110449,38.544629],[26.160352,38.540723],[26.141211,38.486182],[26.149609,38.468457],[26.157031,38.30293],[26.110742,38.279639],[26.103125,38.23418],[26.094043,38.218066]]],[[[26.410156,39.329443],[26.392773,39.270117],[26.531055,39.171777],[26.578223,39.109521],[26.595605,39.048828],[26.583984,39.031445],[26.531543,39.064355],[26.488672,39.074805],[26.503125,39.031445],[26.547168,38.994141],[26.46875,38.972803],[26.390137,38.973926],[26.16084,39.025879],[26.10791,39.081055],[26.245117,39.164111],[26.273145,39.197559],[26.175977,39.194287],[26.072363,39.095605],[25.90625,39.138965],[25.855469,39.178662],[25.844141,39.200049],[25.90957,39.287549],[26.026465,39.284619],[26.088379,39.304297],[26.164844,39.331982],[26.16543,39.373535],[26.347754,39.383008],[26.410156,39.329443]]],[[[25.685742,40.426562],[25.572656,40.400439],[25.448047,40.482812],[25.568555,40.515869],[25.624316,40.491992],[25.664258,40.463867],[25.685742,40.426562]]],[[[25.437695,39.983301],[25.399902,39.949561],[25.37207,39.891309],[25.357031,39.808105],[25.29873,39.806104],[25.263379,39.822949],[25.251758,39.854395],[25.249414,39.894141],[25.223828,39.892578],[25.203223,39.849414],[25.185156,39.829932],[25.126465,39.82583],[25.062207,39.852393],[25.065234,39.909863],[25.052344,39.976367],[25.058008,39.999658],[25.23418,40.00542],[25.285742,39.956299],[25.348047,39.984766],[25.373633,40.015527],[25.449121,40.034814],[25.437695,39.983301]]],[[[25.402734,37.419141],[25.307129,37.412988],[25.312695,37.489307],[25.348145,37.50918],[25.462988,37.471094],[25.457422,37.44707],[25.402734,37.419141]]],[[[24.523535,37.125098],[24.486523,37.110059],[24.424805,37.131982],[24.441211,37.186865],[24.483789,37.210205],[24.529102,37.192334],[24.535938,37.167676],[24.523535,37.125098]]],[[[27.842773,35.929297],[27.770605,35.908301],[27.745703,35.911035],[27.715527,35.957324],[27.757324,36.069189],[27.718652,36.141113],[27.716309,36.171582],[27.774414,36.21377],[27.815234,36.276953],[27.914453,36.345312],[28.171484,36.426221],[28.231836,36.433643],[28.230078,36.370264],[28.144043,36.209863],[28.067676,36.129687],[28.087793,36.065332],[27.965527,36.04751],[27.842773,35.929297]]],[[[23.852246,35.535449],[23.920605,35.528174],[24.013281,35.529443],[24.034375,35.5354],[24.093359,35.593848],[24.166016,35.595215],[24.197754,35.537451],[24.124023,35.51084],[24.108984,35.495801],[24.123145,35.483643],[24.178516,35.459521],[24.255371,35.468604],[24.257715,35.423145],[24.274902,35.385986],[24.312891,35.363818],[24.354004,35.359473],[24.444922,35.366016],[24.53457,35.380762],[24.626953,35.409912],[24.721289,35.424805],[25.003125,35.409863],[25.104297,35.346924],[25.296777,35.339355],[25.475684,35.306201],[25.569629,35.328076],[25.730176,35.348584],[25.755859,35.326367],[25.735156,35.184033],[25.74502,35.142725],[25.791309,35.122852],[25.837109,35.132568],[25.893359,35.179199],[26.028027,35.215283],[26.167871,35.215088],[26.285547,35.309766],[26.320215,35.315137],[26.298633,35.268604],[26.280859,35.159229],[26.255566,35.095166],[26.244336,35.044678],[26.165625,35.018604],[26.04668,35.01416],[25.829688,35.025195],[25.610938,35.007324],[25.205762,34.959277],[24.799805,34.934473],[24.745215,34.950635],[24.743945,35.014355],[24.735156,35.058301],[24.708887,35.089062],[24.583398,35.115332],[24.463672,35.160352],[23.994336,35.221924],[23.883594,35.246094],[23.703906,35.233496],[23.638086,35.235156],[23.592773,35.257227],[23.561621,35.295166],[23.547559,35.415576],[23.569824,35.534766],[23.608691,35.56626],[23.626563,35.530371],[23.672656,35.513916],[23.71543,35.550146],[23.715039,35.604736],[23.736914,35.655518],[23.770801,35.634229],[23.793359,35.556201],[23.852246,35.535449]]],[[[26.320898,41.716553],[26.410547,41.696338],[26.4625,41.663379],[26.49502,41.633252],[26.544531,41.607227],[26.581348,41.60127],[26.609766,41.512158],[26.624902,41.401758],[26.602344,41.35415],[26.536426,41.343115],[26.330664,41.23877],[26.325684,41.143262],[26.328418,41.097021],[26.332617,41.064307],[26.354102,41.036768],[26.354102,40.99707],[26.331055,40.954492],[26.241211,40.883203],[26.178906,40.826514],[26.10918,40.749658],[26.069727,40.740283],[26.038965,40.726758],[26.010742,40.769141],[25.855664,40.844092],[25.496777,40.887793],[25.325293,40.943115],[25.250098,40.932812],[25.104492,40.994727],[25.004688,40.967529],[24.792969,40.85752],[24.678711,40.869482],[24.556543,40.935596],[24.477051,40.947754],[24.383789,40.912744],[24.234375,40.786133],[24.082324,40.724072],[23.946094,40.74834],[23.762793,40.747803],[23.743262,40.677002],[23.778711,40.627979],[23.878906,40.544385],[23.831934,40.481543],[23.866797,40.418555],[23.932031,40.405762],[24.030566,40.409326],[24.212793,40.327783],[24.29248,40.241797],[24.343359,40.147705],[24.232422,40.215186],[24.158789,40.280029],[24.056055,40.303564],[23.913184,40.358789],[23.823438,40.368018],[23.72793,40.329736],[23.720508,40.286279],[23.823438,40.205127],[23.917578,40.155225],[23.96748,40.114551],[24.000781,40.024609],[23.981836,39.994043],[23.94707,39.965576],[23.835352,40.022266],[23.664551,40.223828],[23.42627,40.263965],[23.386426,40.221973],[23.433203,40.11543],[23.46709,40.073926],[23.674121,39.958887],[23.65752,39.934473],[23.627344,39.924072],[23.395605,39.989844],[23.328223,40.089941],[23.312012,40.216455],[23.098145,40.304297],[22.896484,40.399902],[22.851367,40.490625],[22.892871,40.524268],[22.922266,40.590869],[22.811426,40.578613],[22.741895,40.536475],[22.629492,40.495557],[22.624902,40.428613],[22.642676,40.366602],[22.605469,40.276416],[22.569336,40.119336],[22.592188,40.036914],[22.835742,39.800586],[22.919043,39.628906],[22.978809,39.563818],[23.103418,39.492041],[23.233398,39.358447],[23.288477,39.288818],[23.327734,39.174902],[23.218359,39.104395],[23.154688,39.101465],[23.119434,39.132764],[23.16875,39.210449],[23.161719,39.257764],[22.992871,39.331055],[22.921387,39.306348],[22.838965,39.258594],[22.886035,39.169971],[22.938965,39.111523],[22.965527,39.030908],[23.066699,39.037939],[22.930469,38.947705],[22.802637,38.901611],[22.676855,38.898926],[22.596777,38.890576],[22.569141,38.86748],[22.634277,38.850684],[22.6875,38.84917],[22.774023,38.800391],[23.020313,38.741895],[23.137695,38.667969],[23.25293,38.66123],[23.368945,38.525537],[23.569629,38.489404],[23.683984,38.352441],[23.836035,38.325488],[23.966992,38.275],[24.005371,38.226807],[24.024512,38.139795],[24.033008,37.955322],[24.061328,37.81792],[24.062305,37.774512],[24.055371,37.709619],[24.019727,37.677734],[23.971582,37.676758],[23.877344,37.777783],[23.732813,37.884082],[23.580469,38.010547],[23.537207,38.032764],[23.501758,38.034863],[23.420215,37.99209],[23.193652,37.959033],[23.087402,37.912842],[23.047461,37.902637],[23.036328,37.878369],[23.086133,37.853125],[23.147168,37.795312],[23.147168,37.71626],[23.197559,37.620215],[23.262695,37.59541],[23.347559,37.597559],[23.396191,37.579785],[23.408789,37.541553],[23.458105,37.496924],[23.490625,37.463867],[23.489258,37.440186],[23.252539,37.377295],[23.203027,37.348535],[23.161523,37.333838],[23.1,37.36377],[23.096484,37.440576],[23.015137,37.481787],[22.940527,37.51709],[22.851074,37.532227],[22.775,37.585107],[22.725391,37.542139],[22.765039,37.393311],[22.851074,37.29082],[22.99502,37.015869],[23.060352,36.853516],[23.073535,36.774951],[23.041016,36.644531],[23.111719,36.547607],[23.160156,36.448096],[23.106836,36.451855],[23.060547,36.486963],[22.98291,36.528369],[22.832324,36.687109],[22.779883,36.786182],[22.717188,36.793945],[22.608398,36.779736],[22.489063,36.568164],[22.489453,36.446924],[22.427734,36.475781],[22.374805,36.513574],[22.38125,36.646191],[22.375977,36.701904],[22.231152,36.882568],[22.164746,36.902832],[22.133789,36.963916],[22.080469,37.028955],[22.011719,37.016504],[21.955566,36.990088],[21.940039,36.891797],[21.934277,36.803662],[21.892383,36.737305],[21.738086,36.863232],[21.58291,37.080957],[21.578809,37.200391],[21.69248,37.309277],[21.678906,37.387207],[21.571289,37.541016],[21.416211,37.639941],[21.329297,37.669336],[21.288477,37.774512],[21.205273,37.828857],[21.137988,37.85415],[21.124707,37.891602],[21.14502,37.919287],[21.308105,38.027441],[21.403711,38.19668],[21.451172,38.204736],[21.54873,38.1646],[21.658398,38.175098],[21.748438,38.274219],[21.824707,38.328125],[21.95332,38.321191],[22.24375,38.188721],[22.555859,38.113232],[22.711523,38.046924],[22.799609,37.981201],[22.846387,37.967578],[22.920313,37.958301],[22.916992,38.007471],[22.893164,38.050928],[22.954785,38.074609],[23.12207,38.07334],[23.152539,38.096387],[23.183496,38.133691],[23.148926,38.176074],[23.093555,38.196436],[23.034375,38.2021],[22.99541,38.215527],[22.93252,38.201953],[22.834375,38.234717],[22.783691,38.261719],[22.753906,38.289502],[22.583398,38.344922],[22.42168,38.438525],[22.385254,38.385547],[22.319922,38.356836],[22.226855,38.352832],[21.965332,38.412451],[21.804688,38.366943],[21.71709,38.355029],[21.650098,38.354004],[21.567676,38.333594],[21.472559,38.321387],[21.390137,38.407812],[21.355469,38.474805],[21.331055,38.487305],[21.329785,38.424365],[21.30332,38.373926],[21.182617,38.345557],[21.113184,38.384668],[21.059766,38.503271],[20.992188,38.654004],[20.873242,38.775732],[20.776855,38.80752],[20.768555,38.874414],[20.777344,38.927881],[20.893164,38.941113],[21.074219,38.885156],[21.111621,38.896289],[21.152344,38.92207],[21.144531,38.979199],[21.118359,39.02998],[21.068555,39.032275],[21.034082,39.02627],[20.922754,39.036768],[20.779688,39.008545],[20.713379,39.035156],[20.691309,39.06748],[20.57168,39.147705],[20.468262,39.255273],[20.300781,39.3271],[20.191406,39.545801],[20.099414,39.64126],[20.00127,39.709424],[20.022559,39.710693],[20.059766,39.699121],[20.131055,39.661621],[20.206836,39.653516],[20.248242,39.678369],[20.27207,39.701172],[20.287598,39.738574],[20.293848,39.782227],[20.306152,39.79668],[20.364063,39.791748],[20.382422,39.802637],[20.381641,39.841797],[20.344238,39.890625],[20.311328,39.950781],[20.311133,39.979443],[20.338477,39.991064],[20.383691,40.017187],[20.408008,40.049463],[20.456055,40.065576],[20.527051,40.068506],[20.60625,40.082666],[20.657422,40.117383],[20.664941,40.151758],[20.696973,40.246387],[20.717871,40.292676],[20.75166,40.334912],[20.77002,40.391895],[20.806055,40.445459],[20.881641,40.46792],[20.950195,40.494385],[21.001953,40.563379],[21.030859,40.622461],[21.031055,40.658643],[20.987891,40.717773],[20.955762,40.775293],[20.964258,40.849902],[21.1,40.856152],[21.147559,40.863135],[21.32373,40.867139],[21.404102,40.907178],[21.459668,40.903613],[21.575781,40.868945],[21.627539,40.896338],[21.779492,40.950439],[21.929492,41.107422],[21.993359,41.130957],[22.138867,41.140527],[22.184473,41.158643],[22.237695,41.155176],[22.400781,41.123389],[22.493555,41.118506],[22.603613,41.140186],[22.724805,41.178516],[22.755078,41.312744],[22.783887,41.331982],[22.859277,41.337354],[22.916016,41.336279],[23.025586,41.325635],[23.155957,41.32207],[23.239844,41.384961],[23.37207,41.389648],[23.433398,41.39873],[23.53584,41.386035],[23.635156,41.386768],[23.762305,41.412988],[23.880859,41.455957],[23.973535,41.452295],[24.011328,41.460059],[24.03291,41.469092],[24.056055,41.527246],[24.230371,41.530811],[24.289453,41.525049],[24.386719,41.523535],[24.487891,41.555225],[24.518262,41.552539],[24.569336,41.467383],[24.595996,41.442725],[24.651074,41.419971],[24.77373,41.356104],[24.795801,41.3729],[24.846875,41.394238],[24.993555,41.36499],[25.133398,41.315771],[25.251172,41.243555],[25.381934,41.264355],[25.527051,41.299805],[25.621484,41.310107],[25.723926,41.315039],[25.784961,41.33042],[25.92334,41.311914],[26.066406,41.350684],[26.135352,41.385742],[26.155176,41.434863],[26.143555,41.521533],[26.11123,41.608203],[26.076953,41.640186],[26.066016,41.673242],[26.085547,41.70415],[26.107422,41.725684],[26.200586,41.743799],[26.320898,41.716553]]]]},"properties":{"iso":"GR","name":"Greece","layer":"ottoman-peak","ottoman_era":"1683"}},{"type":"Feature","geometry":{"type":"Polygon","coordinates":[[[36.871387,21.996729],[36.543262,21.996631],[36.215234,21.996582],[35.887012,21.996533],[35.558984,21.996484],[35.230859,21.996436],[34.902734,21.996387],[34.574609,21.996338],[34.246484,21.996289],[33.918457,21.99624],[33.590332,21.996191],[33.262207,21.996143],[32.934082,21.996094],[32.606055,21.995996],[32.277832,21.995996],[31.949805,21.995898],[31.62168,21.99585],[31.434473,21.99585],[31.466406,22.084668],[31.486133,22.147803],[31.464258,22.191504],[31.400293,22.202441],[31.358496,22.188623],[31.260645,22.002295],[31.20918,21.994873],[31.092676,21.994873],[30.710645,21.994922],[30.328613,21.99502],[29.94668,21.995117],[29.564551,21.995117],[29.18252,21.995215],[28.800586,21.995264],[28.418555,21.995312],[28.036426,21.995361],[27.654492,21.995459],[27.272461,21.995508],[26.89043,21.995557],[26.508398,21.995605],[26.126367,21.995654],[25.744336,21.995752],[25.362305,21.995801],[24.980273,21.99585],[24.980273,22.22041],[24.980273,22.444971],[24.980273,22.669531],[24.980273,22.894092],[24.980273,23.118652],[24.980273,23.343213],[24.980273,23.567822],[24.980273,23.792383],[24.980273,24.016943],[24.980273,24.241504],[24.980273,24.466064],[24.980273,24.690625],[24.980273,24.915186],[24.980273,25.139746],[24.980273,25.364307],[24.980273,25.588867],[24.980273,25.813428],[24.980273,26.037988],[24.980273,26.262549],[24.980273,26.487109],[24.980273,26.71167],[24.980273,26.93623],[24.980273,27.16084],[24.980273,27.3854],[24.980273,27.609961],[24.980273,27.834521],[24.980273,28.059082],[24.980273,28.283643],[24.980273,28.508203],[24.980273,28.732764],[24.980273,28.957324],[24.980273,29.181885],[24.97168,29.223828],[24.916113,29.37627],[24.865918,29.570264],[24.81084,29.80874],[24.803711,29.886035],[24.711621,30.131543],[24.703223,30.201074],[24.726465,30.250586],[24.877539,30.45752],[24.923047,30.558008],[24.961426,30.678516],[24.973926,30.776562],[24.929492,30.926465],[24.877539,31.06123],[24.859961,31.19917],[24.852734,31.334814],[24.92998,31.42749],[25.022656,31.514014],[25.057227,31.567187],[25.112012,31.626904],[25.150488,31.65498],[25.225488,31.533789],[25.382227,31.512793],[25.893262,31.620898],[26.457324,31.512109],[26.768652,31.470361],[27.248047,31.377881],[27.540039,31.212695],[27.620117,31.191748],[27.82998,31.19502],[27.967578,31.097412],[28.514844,31.050439],[28.806934,30.942676],[28.972754,30.856738],[29.07207,30.830273],[29.159961,30.83457],[29.278906,30.866943],[29.428516,30.927441],[29.591602,31.011523],[29.929785,31.22749],[30.049414,31.26543],[30.127539,31.255664],[30.222656,31.258398],[30.262305,31.316846],[30.312305,31.357031],[30.34375,31.402734],[30.395117,31.457617],[30.570996,31.472998],[30.923535,31.566846],[30.88418,31.522363],[30.562988,31.416992],[30.700488,31.403857],[30.841406,31.439893],[31.001758,31.462793],[31.030859,31.507568],[31.051953,31.591553],[31.08291,31.60332],[31.193945,31.587598],[31.524414,31.458252],[31.606543,31.455762],[31.839258,31.526318],[31.888965,31.541406],[31.964258,31.5021],[32.136035,31.341064],[32.076074,31.344482],[31.892188,31.482471],[31.875879,31.413721],[31.771094,31.292578],[31.902051,31.240186],[32.008496,31.220508],[32.065625,31.152979],[32.101758,31.092822],[32.206543,31.119043],[32.281836,31.200879],[32.242773,31.246533],[32.216211,31.29375],[32.250586,31.294922],[32.323535,31.256055],[32.532813,31.100732],[32.60332,31.06875],[32.68457,31.074023],[32.854492,31.117725],[32.901563,31.110937],[33.129883,31.168164],[33.156738,31.126221],[33.194336,31.084521],[33.37793,31.130957],[33.666504,31.13042],[33.902539,31.180957],[34.17627,31.303906],[34.198145,31.322607],[34.2125,31.292285],[34.245313,31.208301],[34.328516,30.99502],[34.400977,30.827832],[34.489941,30.596289],[34.517773,30.507373],[34.529688,30.446045],[34.658594,30.191455],[34.735059,29.982031],[34.791113,29.812109],[34.869824,29.563916],[34.904297,29.477344],[34.848535,29.432129],[34.736426,29.270605],[34.617188,28.75791],[34.446484,28.357324],[34.427148,28.106494],[34.399707,28.016016],[34.318555,27.888965],[34.220117,27.764307],[34.045117,27.828857],[33.760254,28.047656],[33.594141,28.255566],[33.416113,28.389844],[33.247754,28.567725],[33.201953,28.695703],[33.203711,28.777783],[33.130176,28.978271],[33.075781,29.073047],[32.870605,29.28623],[32.811719,29.4],[32.766699,29.45],[32.721484,29.521777],[32.647168,29.798437],[32.565723,29.973975],[32.473047,29.925439],[32.489453,29.851514],[32.408594,29.749316],[32.359766,29.630664],[32.397266,29.533789],[32.565039,29.386328],[32.599023,29.321924],[32.638086,29.182178],[32.631836,28.992236],[32.658887,28.927734],[32.784473,28.786621],[32.829492,28.702881],[32.856543,28.630615],[32.898242,28.565234],[33.022852,28.442285],[33.202148,28.208301],[33.372266,28.050586],[33.494922,27.974463],[33.54707,27.898145],[33.558789,27.701221],[33.549805,27.607373],[33.657422,27.430566],[33.697266,27.341113],[33.80166,27.268164],[33.849316,27.184912],[33.893066,27.049463],[33.959082,26.649023],[34.049512,26.550732],[34.329297,26.024365],[34.565137,25.691162],[34.679297,25.442529],[34.853223,25.139795],[35.194141,24.475146],[35.39707,24.269971],[35.477832,24.154785],[35.624707,24.066016],[35.783887,23.937793],[35.632031,23.950342],[35.593848,23.942578],[35.54082,23.920654],[35.515234,23.842871],[35.504395,23.779297],[35.522754,23.442529],[35.564355,23.271094],[35.697852,22.946191],[35.797363,22.84873],[35.845801,22.785693],[35.913379,22.739648],[36.229688,22.628809],[36.414551,22.394189],[36.829688,22.097656],[36.87041,22.015771],[36.871387,21.996729]]]},"properties":{"iso":"EG","name":"Egypt","layer":"ottoman-peak","ottoman_era":"1683"}},{"type":"Feature","geometry":{"type":"Polygon","coordinates":[[[28.014453,41.969043],[27.879199,41.986621],[27.831934,41.981299],[27.80166,41.956543],[27.738867,41.961523],[27.661133,41.961328],[27.579883,41.93291],[27.534863,41.920801],[27.474805,41.946875],[27.362891,42.025049],[27.294922,42.079541],[27.244336,42.093262],[27.193359,42.0771],[27.011719,42.058643],[26.96875,42.026855],[26.884863,41.991846],[26.800391,41.975146],[26.679199,41.96333],[26.615332,41.964893],[26.579688,41.947949],[26.549707,41.896729],[26.529297,41.84668],[26.511426,41.826367],[26.360352,41.801562],[26.327246,41.772803],[26.317969,41.744678],[26.320898,41.716553],[26.200586,41.743799],[26.107422,41.725684],[26.085547,41.70415],[26.066016,41.673242],[26.076953,41.640186],[26.11123,41.608203],[26.143555,41.521533],[26.155176,41.434863],[26.135352,41.385742],[26.066406,41.350684],[25.92334,41.311914],[25.784961,41.33042],[25.723926,41.315039],[25.621484,41.310107],[25.527051,41.299805],[25.381934,41.264355],[25.251172,41.243555],[25.133398,41.315771],[24.993555,41.36499],[24.846875,41.394238],[24.795801,41.3729],[24.77373,41.356104],[24.651074,41.419971],[24.595996,41.442725],[24.569336,41.467383],[24.518262,41.552539],[24.487891,41.555225],[24.386719,41.523535],[24.289453,41.525049],[24.230371,41.530811],[24.056055,41.527246],[24.03291,41.469092],[24.011328,41.460059],[23.973535,41.452295],[23.880859,41.455957],[23.762305,41.412988],[23.635156,41.386768],[23.53584,41.386035],[23.433398,41.39873],[23.37207,41.389648],[23.239844,41.384961],[23.155957,41.32207],[23.025586,41.325635],[22.916016,41.336279],[22.929688,41.356104],[22.951465,41.605615],[23.005664,41.716943],[23.003613,41.739844],[22.991992,41.757178],[22.943945,41.775098],[22.90918,41.835205],[22.836816,41.993604],[22.796094,42.025684],[22.682324,42.059131],[22.582715,42.104834],[22.498242,42.165088],[22.344043,42.313965],[22.42207,42.328857],[22.445703,42.359131],[22.523535,42.440967],[22.532422,42.481201],[22.524219,42.503906],[22.47207,42.543311],[22.43623,42.629102],[22.463281,42.709473],[22.465625,42.750781],[22.439258,42.79165],[22.466797,42.84248],[22.522754,42.870312],[22.558105,42.878467],[22.706152,42.883936],[22.799902,42.985742],[22.856836,43.018262],[22.915234,43.075977],[22.942285,43.09707],[22.967969,43.142041],[22.976855,43.187988],[22.85957,43.252344],[22.819727,43.300732],[22.767578,43.35415],[22.696973,43.391064],[22.55459,43.454492],[22.499121,43.518848],[22.474121,43.602246],[22.436328,43.665479],[22.394824,43.706641],[22.386914,43.740137],[22.369629,43.781299],[22.36543,43.862109],[22.399023,43.969531],[22.420801,44.007422],[22.469043,44.018018],[22.597461,44.075293],[22.603418,44.148584],[22.626563,44.194092],[22.66748,44.220215],[22.705078,44.237793],[22.775195,44.195215],[22.94541,44.127295],[23.028516,44.077979],[23.024414,44.047217],[22.985352,44.016992],[22.911328,43.987207],[22.868262,43.9479],[22.856445,43.899023],[22.867676,43.864551],[22.919043,43.834473],[23.224609,43.873877],[23.53457,43.853564],[23.950781,43.78667],[24.226758,43.763477],[24.430566,43.794385],[24.808203,43.738428],[25.159668,43.686328],[25.49707,43.670801],[25.686133,43.711768],[25.818848,43.766846],[25.933398,43.870557],[26.21582,44.007275],[26.489258,44.083984],[26.847754,44.146191],[27.086914,44.167383],[27.120703,44.146143],[27.425391,44.020508],[27.561035,44.020068],[27.670898,43.997803],[27.710742,43.9646],[27.738574,43.956299],[27.884277,43.987354],[27.948926,43.918604],[28.05,43.822412],[28.221973,43.772852],[28.375195,43.744775],[28.423438,43.740479],[28.585352,43.742236],[28.561816,43.501318],[28.46543,43.389307],[28.319629,43.426855],[28.133691,43.395605],[28.035156,43.268262],[27.979297,43.230518],[27.928906,43.186133],[27.896484,43.020703],[27.888867,42.749707],[27.818359,42.71665],[27.753711,42.706543],[27.484766,42.468066],[27.639551,42.400977],[27.708203,42.349951],[27.821387,42.208008],[27.982715,42.047412],[28.014453,41.969043]]]},"properties":{"iso":"BG","name":"Bulgaria","layer":"ottoman-peak","ottoman_era":"1683"}},{"type":"Feature","geometry":{"type":"Polygon","coordinates":[[[19.348633,44.880908],[19.356836,44.858545],[19.334473,44.780664],[19.291895,44.696777],[19.223145,44.60957],[19.151367,44.527344],[19.132422,44.483789],[19.127344,44.414551],[19.118457,44.359961],[19.12832,44.330273],[19.151855,44.302539],[19.231543,44.280566],[19.338867,44.22583],[19.430176,44.154492],[19.547168,44.073486],[19.583789,44.043457],[19.583691,44.011084],[19.549512,43.987109],[19.449414,43.978027],[19.345215,43.985107],[19.305273,43.993359],[19.268066,43.983447],[19.24502,43.965039],[19.257227,43.943311],[19.364063,43.844775],[19.488184,43.703564],[19.495117,43.642871],[19.47998,43.595166],[19.45127,43.562061],[19.399609,43.567578],[19.360352,43.593457],[19.300781,43.591797],[19.254492,43.584375],[19.194336,43.533301],[19.164355,43.535449],[19.112793,43.527734],[19.080078,43.517725],[19.02832,43.53252],[18.974219,43.542334],[18.950684,43.52666],[18.940234,43.496729],[18.973828,43.442383],[19.036719,43.357324],[19.02666,43.292432],[18.978711,43.2854],[18.934668,43.339453],[18.895605,43.348193],[18.851074,43.346338],[18.749219,43.283545],[18.674219,43.230811],[18.656836,43.193945],[18.62998,43.153662],[18.621875,43.124609],[18.623633,43.027686],[18.488477,43.012158],[18.460156,42.9979],[18.443848,42.968457],[18.455078,42.844092],[18.466016,42.777246],[18.543262,42.67417],[18.545898,42.641602],[18.534961,42.620117],[18.480078,42.579199],[18.453906,42.564502],[18.436328,42.559717],[18.346582,42.58667],[18.304004,42.599414],[18.123926,42.690576],[18.044531,42.74126],[17.918848,42.807422],[17.841309,42.845068],[17.801953,42.902246],[17.740234,42.915479],[17.667578,42.897119],[17.585156,42.938379],[17.643457,42.959766],[17.657813,42.980078],[17.650488,43.006592],[17.624805,43.042773],[17.402246,43.198926],[17.293066,43.305615],[17.275293,43.343848],[17.273828,43.445752],[17.248047,43.470215],[17.08457,43.516553],[16.901855,43.649023],[16.713477,43.778809],[16.687695,43.815039],[16.590527,43.913184],[16.47207,44.002588],[16.377539,44.059619],[16.300098,44.124512],[16.214258,44.215137],[16.169824,44.352002],[16.130273,44.47373],[16.103418,44.520996],[16.049023,44.537598],[15.880078,44.681934],[15.736621,44.76582],[15.737988,44.856396],[15.761523,45.00752],[15.788086,45.178955],[15.822852,45.202783],[15.888281,45.215723],[15.963184,45.210791],[16.02832,45.1896],[16.157324,45.072217],[16.231055,45.026611],[16.293359,45.008838],[16.365039,45.05835],[16.453516,45.162012],[16.530664,45.216699],[16.79082,45.196875],[16.918652,45.276562],[17.125391,45.171777],[17.210645,45.156055],[17.258691,45.170557],[17.324121,45.163965],[17.469141,45.133301],[17.502637,45.120361],[17.546289,45.122559],[17.653516,45.163477],[17.690137,45.158398],[17.812793,45.078125],[17.874414,45.077246],[17.948633,45.111865],[17.996289,45.141797],[18.137207,45.119385],[18.217969,45.13291],[18.284961,45.134277],[18.357617,45.120557],[18.423926,45.102002],[18.488281,45.08584],[18.662598,45.077441],[18.746094,45.026514],[18.779395,44.977246],[18.780176,44.947217],[18.788379,44.914893],[18.836426,44.883252],[18.941309,44.865186],[19.007129,44.869189],[19.04209,44.871338],[19.131543,44.899609],[19.236816,44.914258],[19.312695,44.897461],[19.348633,44.880908]]]},"properties":{"iso":"BA","name":"Bosnia and Herz.","layer":"ottoman-peak","ottoman_era":"1683"}},{"type":"Feature","geometry":{"type":"Polygon","coordinates":[[[19.342383,41.869092],[19.345508,41.918848],[19.361133,41.997754],[19.352148,42.024023],[19.361426,42.069092],[19.330859,42.129297],[19.280664,42.172559],[19.329004,42.249268],[19.399609,42.341895],[19.465137,42.415381],[19.544531,42.491943],[19.597461,42.56543],[19.654492,42.628564],[19.703418,42.647949],[19.727832,42.634521],[19.740723,42.606934],[19.737793,42.525146],[19.754492,42.496924],[19.788281,42.476172],[19.859766,42.486328],[19.939063,42.506689],[20.045703,42.549902],[20.063965,42.547266],[20.103516,42.524658],[20.185742,42.425879],[20.240527,42.338965],[20.348242,42.308789],[20.408301,42.274951],[20.485449,42.223389],[20.522852,42.171484],[20.575391,42.013086],[20.581445,41.917432],[20.566211,41.873682],[20.553125,41.862354],[20.505176,41.706494],[20.516602,41.627051],[20.516211,41.574756],[20.475586,41.554102],[20.448633,41.521289],[20.492383,41.391406],[20.487012,41.336084],[20.488965,41.272607],[20.567871,41.127832],[20.614453,41.083057],[20.656055,41.06167],[20.709277,40.928369],[20.74082,40.905273],[20.870215,40.91792],[20.933496,40.903125],[20.958594,40.871533],[20.964258,40.849902],[20.955762,40.775293],[20.987891,40.717773],[21.031055,40.658643],[21.030859,40.622461],[21.001953,40.563379],[20.950195,40.494385],[20.881641,40.46792],[20.806055,40.445459],[20.77002,40.391895],[20.75166,40.334912],[20.717871,40.292676],[20.696973,40.246387],[20.664941,40.151758],[20.657422,40.117383],[20.60625,40.082666],[20.527051,40.068506],[20.456055,40.065576],[20.408008,40.049463],[20.383691,40.017187],[20.338477,39.991064],[20.311133,39.979443],[20.311328,39.950781],[20.344238,39.890625],[20.381641,39.841797],[20.382422,39.802637],[20.364063,39.791748],[20.306152,39.79668],[20.293848,39.782227],[20.287598,39.738574],[20.27207,39.701172],[20.248242,39.678369],[20.206836,39.653516],[20.131055,39.661621],[20.059766,39.699121],[20.022559,39.710693],[20.00127,39.709424],[19.995605,39.801025],[19.964844,39.872266],[19.851855,40.043555],[19.48457,40.209961],[19.398145,40.284863],[19.360156,40.347705],[19.322266,40.40708],[19.358594,40.40874],[19.394531,40.393701],[19.440527,40.375684],[19.45918,40.405371],[19.439258,40.470264],[19.344629,40.62207],[19.3375,40.663818],[19.383887,40.790723],[19.46123,40.933301],[19.456055,41.106055],[19.480078,41.236377],[19.453418,41.320996],[19.440625,41.424756],[19.497363,41.562695],[19.545801,41.596826],[19.575684,41.64043],[19.577539,41.7875],[19.468262,41.856152],[19.342383,41.869092]]]},"properties":{"iso":"AL","name":"Albania","layer":"ottoman-peak","ottoman_era":"1683"}},{"type":"Feature","geometry":{"type":"Polygon","coordinates":[[[34.5,29.5],[36.2,28.8],[38,27.8],[39.4,26],[41,24],[41.8,22],[42.4,19.5],[42.7,17.5],[43.2,16.5],[43,17.5],[42.5,19.5],[41.8,22],[41,24],[39.2,25.5],[37.8,27],[36.5,28.5],[35.5,29.2],[34.8,29.4],[34.5,29.5]]]},"properties":{"iso":"SA-HJ","name":"Hejaz","layer":"ottoman-peak","ottoman_era":"1683"}},{"type":"Feature","geometry":{"type":"Polygon","coordinates":[[[33.5,46.2],[34,46.15],[35,46],[35.8,45.8],[36.6,45.45],[36.6,45],[36.2,44.55],[35.4,44.45],[34,44.4],[33,44.6],[32.5,45.3],[33,45.9],[33.5,46.2]]]},"properties":{"iso":"UA-CR","name":"Crimea","layer":"ottoman-peak","ottoman_era":"1683"}}]}