{"type":"FeatureCollection","features":[{"type":"Feature","geometry":{"type":"Polygon","coordinates":[[[76.766895,35.661719],[76.812793,35.571826],[76.882227,35.435742],[76.927734,35.346631],[76.978906,35.246436],[77.004492,35.196338],[77.048633,35.109912],[77.030664,35.062354],[77.000879,34.991992],[76.891699,34.938721],[76.78291,34.900195],[76.75752,34.877832],[76.749023,34.847559],[76.696289,34.786914],[76.594434,34.73584],[76.509961,34.740869],[76.456738,34.756104],[76.172461,34.667725],[76.041016,34.669922],[75.938281,34.612549],[75.862109,34.560254],[75.70918,34.503076],[75.605566,34.502734],[75.452539,34.536719],[75.264063,34.601367],[75.1875,34.639014],[75.118457,34.636816],[74.951855,34.64585],[74.78877,34.677734],[74.594141,34.715771],[74.497949,34.732031],[74.300391,34.765381],[74.171973,34.720898],[74.055859,34.680664],[73.96123,34.653467],[73.883105,34.529053],[73.850098,34.485303],[73.812109,34.422363],[73.794531,34.378223],[73.809961,34.325342],[73.924609,34.287842],[73.972363,34.236621],[73.979492,34.191309],[73.938281,34.144775],[73.903906,34.108008],[73.904102,34.075684],[73.922363,34.043066],[73.949902,34.018799],[74.112598,34.003711],[74.208984,34.003418],[74.246484,33.990186],[74.250879,33.946094],[74.215625,33.886572],[74.078418,33.838672],[74.000977,33.788184],[73.976465,33.721289],[73.977539,33.667822],[74.004004,33.632422],[74.069727,33.591699],[74.13125,33.545068],[74.15,33.506982],[74.142578,33.455371],[74.117773,33.384131],[74.050391,33.30127],[73.994238,33.242188],[73.989844,33.221191],[74.003809,33.189453],[74.049121,33.143408],[74.12627,33.075439],[74.22207,33.020312],[74.283594,33.005127],[74.303613,32.991797],[74.322754,32.927979],[74.32998,32.86084],[74.305469,32.810449],[74.35459,32.768701],[74.483398,32.770996],[74.588281,32.753223],[74.632422,32.770898],[74.663281,32.757666],[74.643359,32.607715],[74.657813,32.518945],[74.685742,32.493799],[74.788867,32.457812],[74.987305,32.462207],[75.104102,32.420361],[75.233691,32.372119],[75.302637,32.318896],[75.333496,32.279199],[75.324707,32.215283],[75.254102,32.140332],[75.13877,32.104785],[75.071484,32.089355],[74.739453,31.948828],[74.635742,31.889746],[74.555566,31.818555],[74.525977,31.765137],[74.509961,31.712939],[74.581836,31.523926],[74.593945,31.465381],[74.534961,31.261377],[74.517676,31.185596],[74.539746,31.132666],[74.610352,31.112842],[74.625781,31.06875],[74.632812,31.034668],[74.509766,30.959668],[74.380371,30.893408],[74.339355,30.893555],[74.215625,30.768994],[74.008984,30.519678],[73.899316,30.435352],[73.891602,30.394043],[73.882715,30.352148],[73.924609,30.281641],[73.933398,30.22207],[73.886523,30.162012],[73.80918,30.093359],[73.658008,30.033203],[73.46748,29.97168],[73.381641,29.934375],[73.317285,29.772998],[73.257812,29.610693],[73.231152,29.550635],[73.12832,29.363916],[72.94873,29.088818],[72.90332,29.02876],[72.625586,28.896143],[72.341895,28.751904],[72.291992,28.697266],[72.233887,28.56582],[72.179199,28.421777],[72.128516,28.346338],[71.948047,28.177295],[71.888867,28.047461],[71.870313,27.9625],[71.716699,27.915088],[71.542969,27.869873],[71.290137,27.855273],[71.184766,27.831641],[70.874902,27.714453],[70.797949,27.709619],[70.737402,27.729004],[70.691602,27.768994],[70.649121,27.835352],[70.629102,27.937451],[70.569238,27.983789],[70.488574,28.023145],[70.403711,28.025049],[70.318457,27.981641],[70.244336,27.934131],[70.193945,27.894873],[70.144531,27.849023],[70.049805,27.694727],[69.896289,27.473633],[69.724805,27.312695],[69.661328,27.264502],[69.621582,27.228076],[69.567969,27.174609],[69.537012,27.122949],[69.494531,26.95415],[69.47002,26.804443],[69.48125,26.770996],[69.506934,26.742676],[69.600586,26.699121],[69.735938,26.627051],[69.911426,26.586133],[70.059375,26.57876],[70.114648,26.548047],[70.147656,26.506445],[70.156836,26.471436],[70.149219,26.347559],[70.132617,26.214795],[70.077734,26.071973],[70.078613,25.990039],[70.100195,25.910059],[70.264648,25.706543],[70.325195,25.685742],[70.448535,25.681348],[70.505859,25.685303],[70.569531,25.705957],[70.614844,25.691895],[70.648438,25.666943],[70.657227,25.625781],[70.652051,25.4229],[70.702539,25.331055],[70.800488,25.205859],[70.877734,25.062988],[70.950879,24.891602],[71.020703,24.757666],[71.047852,24.687744],[71.002344,24.653906],[70.976367,24.61875],[70.969824,24.571875],[70.979297,24.522461],[70.973242,24.487402],[71.00625,24.444336],[71.045313,24.42998],[71.044043,24.400098],[70.982813,24.361035],[70.928125,24.362354],[70.88623,24.34375],[70.805078,24.261963],[70.767285,24.24541],[70.716309,24.237988],[70.659473,24.246094],[70.579297,24.279053],[70.555859,24.331104],[70.565039,24.385791],[70.546777,24.418311],[70.489258,24.412158],[70.289062,24.356299],[70.098242,24.2875],[70.065137,24.240576],[70.021094,24.191553],[69.933789,24.171387],[69.805176,24.165234],[69.716211,24.172607],[69.63418,24.225195],[69.55918,24.273096],[69.443457,24.275391],[69.235059,24.268262],[69.119531,24.268652],[69.051563,24.286328],[68.98457,24.273096],[68.900781,24.292432],[68.863477,24.266504],[68.82832,24.264014],[68.8,24.309082],[68.781152,24.313721],[68.758984,24.307227],[68.739648,24.291992],[68.728125,24.265625],[68.724121,23.964697],[68.586621,23.966602],[68.488672,23.967236],[68.38125,23.950879],[68.28252,23.927979],[68.23418,23.900537],[68.165039,23.857324],[68.148828,23.797217],[68.115527,23.753369],[68.067773,23.818359],[68.037012,23.848242],[68.001465,23.826074],[67.950977,23.828613],[67.859961,23.902686],[67.819043,23.828076],[67.668457,23.810986],[67.649512,23.867285],[67.645801,23.919873],[67.563086,23.881836],[67.503613,23.940039],[67.476855,24.018262],[67.453906,24.039893],[67.427637,24.064844],[67.365234,24.091602],[67.309375,24.174805],[67.304297,24.262891],[67.288672,24.367773],[67.171484,24.756104],[67.100586,24.791943],[66.703027,24.860937],[66.682227,24.928857],[66.709863,25.111328],[66.698633,25.226318],[66.569922,25.378516],[66.533887,25.484375],[66.428613,25.575342],[66.324219,25.601807],[66.219043,25.589893],[66.162305,25.553906],[66.131152,25.493262],[66.356445,25.507373],[66.407129,25.485059],[66.467676,25.445312],[66.40293,25.446826],[66.32832,25.465771],[66.234668,25.464355],[65.883594,25.419629],[65.679688,25.355273],[65.40625,25.374316],[65.061328,25.311084],[64.77666,25.307324],[64.658984,25.184082],[64.594043,25.206299],[64.54375,25.23667],[64.152051,25.333447],[64.124902,25.373926],[64.059375,25.40293],[63.987305,25.351172],[63.935547,25.342529],[63.720898,25.385889],[63.556641,25.353174],[63.495703,25.29751],[63.491406,25.21084],[63.285742,25.227588],[63.17002,25.254883],[63.015039,25.224658],[62.664746,25.264795],[62.572461,25.254736],[62.444727,25.197266],[62.391211,25.152539],[62.315332,25.134912],[62.24873,25.197363],[62.198633,25.224854],[62.152148,25.206641],[62.089453,25.155322],[61.90791,25.131299],[61.743652,25.138184],[61.566895,25.186328],[61.587891,25.202344],[61.61543,25.286133],[61.640137,25.584619],[61.671387,25.692383],[61.661816,25.75127],[61.668652,25.768994],[61.737695,25.821094],[61.754395,25.843359],[61.780762,25.99585],[61.809961,26.165283],[61.842383,26.225928],[61.869824,26.242432],[62.089063,26.318262],[62.125977,26.368994],[62.239355,26.357031],[62.249609,26.369238],[62.259668,26.42749],[62.312305,26.490869],[62.385059,26.542627],[62.439258,26.561035],[62.636426,26.593652],[62.751563,26.63916],[62.786621,26.643896],[63.092969,26.632324],[63.157813,26.649756],[63.168066,26.665576],[63.186133,26.837598],[63.241602,26.864746],[63.250391,26.879248],[63.231445,26.998145],[63.24209,27.077686],[63.305176,27.124561],[63.301563,27.151465],[63.25625,27.20791],[63.196094,27.243945],[63.166797,27.25249],[62.91543,27.218408],[62.811621,27.229443],[62.762988,27.250195],[62.752734,27.265625],[62.7625,27.300195],[62.764258,27.356738],[62.800879,27.444531],[62.812012,27.497021],[62.782324,27.800537],[62.739746,28.002051],[62.7625,28.202051],[62.758008,28.243555],[62.749414,28.252881],[62.717578,28.252783],[62.564551,28.235156],[62.433887,28.363867],[62.353027,28.414746],[62.130566,28.478809],[62.033008,28.491016],[61.889844,28.546533],[61.758008,28.667676],[61.623047,28.791602],[61.56875,28.870898],[61.508594,29.006055],[61.337891,29.26499],[61.339453,29.331787],[61.318359,29.372607],[61.152148,29.542725],[61.03418,29.663428],[60.843359,29.858691],[61.224414,29.749414],[61.521484,29.665674],[62.000977,29.53042],[62.373438,29.425391],[62.476562,29.40835],[63.567578,29.497998],[63.970996,29.430078],[64.09873,29.391943],[64.117969,29.414258],[64.172168,29.460352],[64.266113,29.506934],[64.39375,29.544336],[64.521094,29.564502],[64.703516,29.567139],[64.827344,29.56416],[64.918945,29.552783],[65.095508,29.559473],[65.180469,29.577637],[65.470996,29.651562],[65.666211,29.701318],[65.961621,29.778906],[66.177051,29.835596],[66.23125,29.865723],[66.286914,29.92002],[66.313379,29.968555],[66.247168,30.043506],[66.238477,30.109619],[66.281836,30.193457],[66.305469,30.321143],[66.300977,30.502979],[66.286914,30.60791],[66.346875,30.802783],[66.397168,30.912207],[66.497363,30.964551],[66.566797,30.996582],[66.595801,31.019971],[66.624219,31.046045],[66.731348,31.194531],[66.829297,31.263672],[66.924316,31.305615],[67.027734,31.300244],[67.115918,31.24292],[67.287305,31.217822],[67.452832,31.234619],[67.596387,31.277686],[67.661523,31.312988],[67.737891,31.343945],[67.733496,31.379248],[67.64707,31.409961],[67.597559,31.45332],[67.578223,31.506494],[67.626758,31.53877],[67.739844,31.548193],[68.017188,31.677979],[68.130176,31.763281],[68.161035,31.802979],[68.213965,31.807373],[68.319824,31.767676],[68.443262,31.754492],[68.520703,31.794141],[68.597656,31.802979],[68.673242,31.759717],[68.713672,31.708057],[68.782324,31.646436],[68.868945,31.634229],[68.973438,31.667383],[69.083105,31.738477],[69.186914,31.838086],[69.279297,31.936816],[69.256543,32.249463],[69.241406,32.433545],[69.289941,32.530566],[69.359473,32.590332],[69.405371,32.682715],[69.40459,32.764258],[69.453125,32.832812],[69.501563,33.020068],[69.567773,33.06416],[69.703711,33.094727],[69.920117,33.1125],[70.090234,33.198096],[70.261133,33.289014],[70.28418,33.369043],[70.219727,33.454687],[70.13418,33.620752],[70.056641,33.719873],[69.868066,33.897656],[69.889648,34.007275],[69.994727,34.051807],[70.253613,33.975977],[70.325684,33.961133],[70.415723,33.950439],[70.654004,33.952295],[70.848438,33.981885],[71.051563,34.049707],[71.091309,34.120264],[71.089063,34.204053],[71.092383,34.273242],[71.095703,34.369434],[71.022949,34.431152],[70.978906,34.486279],[70.965625,34.530371],[71.016309,34.554639],[71.065625,34.599609],[71.113281,34.681592],[71.225781,34.779541],[71.294141,34.867725],[71.358105,34.909619],[71.455078,34.966943],[71.51709,35.051123],[71.545508,35.101416],[71.60166,35.150684],[71.620508,35.183008],[71.605273,35.211768],[71.577246,35.247998],[71.545508,35.288867],[71.545508,35.328516],[71.571973,35.37041],[71.600586,35.40791],[71.587402,35.46084],[71.571973,35.546826],[71.519043,35.59751],[71.483594,35.7146],[71.427539,35.83374],[71.397559,35.880176],[71.342871,35.938525],[71.220215,36.000684],[71.185059,36.04209],[71.23291,36.121777],[71.312598,36.171191],[71.463281,36.293262],[71.545898,36.377686],[71.620508,36.436475],[71.716406,36.426562],[71.772656,36.431836],[71.822266,36.486084],[71.920703,36.53418],[72.095605,36.63374],[72.156738,36.700879],[72.249805,36.734717],[72.326953,36.742383],[72.431152,36.76582],[72.531348,36.802002],[72.622852,36.82959],[72.766211,36.83501],[72.99375,36.851611],[73.116797,36.868555],[73.411133,36.881689],[73.731836,36.887793],[73.769141,36.888477],[73.907813,36.85293],[74.001855,36.823096],[74.038867,36.825732],[74.194727,36.896875],[74.431055,36.983691],[74.541406,37.022168],[74.600586,37.03667],[74.692188,37.035742],[74.766016,37.012744],[74.841211,36.979102],[74.889258,36.952441],[74.949121,36.968359],[75.053906,36.987158],[75.145215,36.973242],[75.34668,36.913477],[75.376855,36.883691],[75.424219,36.738232],[75.460254,36.725049],[75.57373,36.759326],[75.667188,36.741992],[75.772168,36.694922],[75.840234,36.649707],[75.884961,36.600732],[75.933008,36.521582],[75.951855,36.458105],[75.974414,36.382422],[75.968652,36.168848],[75.934082,36.133936],[75.904883,36.088477],[75.912305,36.048975],[75.945117,36.017578],[76.010449,35.996338],[76.070898,35.983008],[76.10332,35.949219],[76.147852,35.829004],[76.177832,35.810547],[76.25166,35.810937],[76.385742,35.837158],[76.502051,35.878223],[76.55127,35.887061],[76.563477,35.772998],[76.631836,35.729395],[76.727539,35.678662],[76.766895,35.661719]]]},"properties":{"iso":"PK","name":"Pakistan","layer":"south-asia"}},{"type":"Feature","geometry":{"type":"Polygon","coordinates":[[[66.522266,37.348486],[66.827734,37.371289],[67.068848,37.334814],[67.195508,37.235205],[67.319727,37.20957],[67.441699,37.258008],[67.517285,37.26665],[67.546484,37.235645],[67.607422,37.22251],[67.7,37.227246],[67.75293,37.199805],[67.758984,37.172217],[67.766016,37.140137],[67.834473,37.064209],[67.958008,36.972021],[68.067773,36.949805],[68.212109,37.021533],[68.260938,37.013086],[68.284766,37.036328],[68.299512,37.088428],[68.386914,37.1375],[68.546484,37.183447],[68.637012,37.224463],[68.669141,37.258398],[68.723242,37.268018],[68.782031,37.258008],[68.82373,37.270703],[68.838477,37.302832],[68.855371,37.316846],[68.885254,37.328076],[68.911816,37.333936],[68.960449,37.325049],[69.05,37.266504],[69.180176,37.158301],[69.264844,37.108398],[69.303906,37.116943],[69.353809,37.150049],[69.414453,37.207764],[69.429688,37.290869],[69.399219,37.399316],[69.420117,37.486719],[69.49209,37.553076],[69.625781,37.594043],[69.820898,37.60957],[69.940625,37.600293],[69.984961,37.566162],[70.044727,37.547217],[70.119824,37.543506],[70.188672,37.582471],[70.251465,37.66416],[70.25498,37.765381],[70.199414,37.886035],[70.214648,37.924414],[70.23877,37.941211],[70.313281,37.984814],[70.417773,38.075439],[70.518555,38.191992],[70.61582,38.334424],[70.735938,38.422559],[70.878906,38.456396],[71.052148,38.417871],[71.255859,38.306982],[71.332715,38.170264],[71.282813,38.00791],[71.278516,37.918408],[71.319922,37.901855],[71.389648,37.906299],[71.487793,37.931885],[71.551953,37.933154],[71.582227,37.910107],[71.580371,37.864258],[71.546191,37.795654],[71.505078,37.60293],[71.479688,37.436035],[71.454785,37.271826],[71.43291,37.127539],[71.471875,37.015088],[71.530859,36.845117],[71.597461,36.73291],[71.665625,36.696924],[71.733789,36.684033],[71.802051,36.694287],[71.941992,36.766455],[72.153516,36.900537],[72.358789,36.98291],[72.657422,37.029053],[72.757031,37.172705],[72.895508,37.267529],[73.211133,37.408496],[73.38291,37.462256],[73.481348,37.47168],[73.604688,37.446045],[73.632617,37.437207],[73.657129,37.430469],[73.720605,37.41875],[73.733789,37.375781],[73.717285,37.329443],[73.648828,37.291211],[73.627539,37.261572],[73.653516,37.239355],[73.749609,37.231787],[73.948828,37.283154],[74.077734,37.316211],[74.16709,37.329443],[74.203516,37.372461],[74.259668,37.41543],[74.349023,37.41875],[74.444922,37.395605],[74.524219,37.382373],[74.659375,37.394482],[74.730566,37.357031],[74.830469,37.285937],[74.875391,37.241992],[74.891309,37.231641],[74.840234,37.225049],[74.767383,37.24917],[74.738965,37.285645],[74.72666,37.290723],[74.668945,37.266699],[74.558984,37.236621],[74.372168,37.157715],[74.376172,37.137354],[74.497949,37.057227],[74.526465,37.030664],[74.541406,37.022168],[74.431055,36.983691],[74.194727,36.896875],[74.038867,36.825732],[74.001855,36.823096],[73.907813,36.85293],[73.769141,36.888477],[73.731836,36.887793],[73.411133,36.881689],[73.116797,36.868555],[72.99375,36.851611],[72.766211,36.83501],[72.622852,36.82959],[72.531348,36.802002],[72.431152,36.76582],[72.326953,36.742383],[72.249805,36.734717],[72.156738,36.700879],[72.095605,36.63374],[71.920703,36.53418],[71.822266,36.486084],[71.772656,36.431836],[71.716406,36.426562],[71.620508,36.436475],[71.545898,36.377686],[71.463281,36.293262],[71.312598,36.171191],[71.23291,36.121777],[71.185059,36.04209],[71.220215,36.000684],[71.342871,35.938525],[71.397559,35.880176],[71.427539,35.83374],[71.483594,35.7146],[71.519043,35.59751],[71.571973,35.546826],[71.587402,35.46084],[71.600586,35.40791],[71.571973,35.37041],[71.545508,35.328516],[71.545508,35.288867],[71.577246,35.247998],[71.605273,35.211768],[71.620508,35.183008],[71.60166,35.150684],[71.545508,35.101416],[71.51709,35.051123],[71.455078,34.966943],[71.358105,34.909619],[71.294141,34.867725],[71.225781,34.779541],[71.113281,34.681592],[71.065625,34.599609],[71.016309,34.554639],[70.965625,34.530371],[70.978906,34.486279],[71.022949,34.431152],[71.095703,34.369434],[71.092383,34.273242],[71.089063,34.204053],[71.091309,34.120264],[71.051563,34.049707],[70.848438,33.981885],[70.654004,33.952295],[70.415723,33.950439],[70.325684,33.961133],[70.253613,33.975977],[69.994727,34.051807],[69.889648,34.007275],[69.868066,33.897656],[70.056641,33.719873],[70.13418,33.620752],[70.219727,33.454687],[70.28418,33.369043],[70.261133,33.289014],[70.090234,33.198096],[69.920117,33.1125],[69.703711,33.094727],[69.567773,33.06416],[69.501563,33.020068],[69.453125,32.832812],[69.40459,32.764258],[69.405371,32.682715],[69.359473,32.590332],[69.289941,32.530566],[69.241406,32.433545],[69.256543,32.249463],[69.279297,31.936816],[69.186914,31.838086],[69.083105,31.738477],[68.973438,31.667383],[68.868945,31.634229],[68.782324,31.646436],[68.713672,31.708057],[68.673242,31.759717],[68.597656,31.802979],[68.520703,31.794141],[68.443262,31.754492],[68.319824,31.767676],[68.213965,31.807373],[68.161035,31.802979],[68.130176,31.763281],[68.017188,31.677979],[67.739844,31.548193],[67.626758,31.53877],[67.578223,31.506494],[67.597559,31.45332],[67.64707,31.409961],[67.733496,31.379248],[67.737891,31.343945],[67.661523,31.312988],[67.596387,31.277686],[67.452832,31.234619],[67.287305,31.217822],[67.115918,31.24292],[67.027734,31.300244],[66.924316,31.305615],[66.829297,31.263672],[66.731348,31.194531],[66.624219,31.046045],[66.595801,31.019971],[66.566797,30.996582],[66.497363,30.964551],[66.397168,30.912207],[66.346875,30.802783],[66.286914,30.60791],[66.300977,30.502979],[66.305469,30.321143],[66.281836,30.193457],[66.238477,30.109619],[66.247168,30.043506],[66.313379,29.968555],[66.286914,29.92002],[66.23125,29.865723],[66.177051,29.835596],[65.961621,29.778906],[65.666211,29.701318],[65.470996,29.651562],[65.180469,29.577637],[65.095508,29.559473],[64.918945,29.552783],[64.827344,29.56416],[64.703516,29.567139],[64.521094,29.564502],[64.39375,29.544336],[64.266113,29.506934],[64.172168,29.460352],[64.117969,29.414258],[64.09873,29.391943],[63.970996,29.430078],[63.567578,29.497998],[62.476562,29.40835],[62.373438,29.425391],[62.000977,29.53042],[61.521484,29.665674],[61.224414,29.749414],[60.843359,29.858691],[61.104102,30.128418],[61.331641,30.363721],[61.559473,30.599365],[61.78418,30.831934],[61.81084,30.913281],[61.814258,31.072559],[61.755078,31.285303],[61.660156,31.382422],[61.346484,31.421631],[61.110742,31.451123],[60.854102,31.483252],[60.820703,31.495166],[60.791602,31.660596],[60.804297,31.734473],[60.7875,31.877197],[60.789941,31.987109],[60.827246,32.167969],[60.829297,32.249414],[60.710449,32.6],[60.644531,32.794385],[60.576563,32.994873],[60.561914,33.058789],[60.560547,33.137842],[60.718066,33.323535],[60.766895,33.363818],[60.859277,33.45625],[60.916992,33.505225],[60.906934,33.538965],[60.806445,33.558691],[60.65459,33.5604],[60.573828,33.58833],[60.51084,33.638916],[60.485938,33.711914],[60.527051,33.841992],[60.485742,34.094775],[60.570215,34.219629],[60.642676,34.307178],[60.889453,34.319434],[60.803906,34.418018],[60.762598,34.475244],[60.736133,34.491797],[60.72627,34.518262],[60.739453,34.544727],[60.802344,34.554639],[60.845313,34.587695],[60.914746,34.633984],[60.951172,34.653857],[60.957813,34.710059],[60.99082,34.749756],[61.04043,34.799365],[61.080078,34.855615],[61.070215,34.921729],[61.106641,35.001123],[61.123145,35.050732],[61.149609,35.09375],[61.126465,35.156543],[61.106641,35.209473],[61.1,35.272314],[61.139648,35.288867],[61.189258,35.312012],[61.199219,35.361621],[61.225684,35.424463],[61.245508,35.474072],[61.278516,35.51377],[61.281836,35.553418],[61.262012,35.61958],[61.344727,35.629492],[61.377734,35.593115],[61.421777,35.545801],[61.542773,35.457861],[61.620996,35.432324],[61.719727,35.419434],[61.841016,35.431494],[61.938086,35.4479],[61.983887,35.443701],[62.089648,35.379687],[62.213086,35.289941],[62.252832,35.250244],[62.271191,35.189111],[62.307813,35.170801],[62.386621,35.23125],[62.462891,35.251367],[62.533105,35.239893],[62.610547,35.233154],[62.688086,35.255322],[62.722656,35.271338],[62.858008,35.349658],[62.980273,35.40918],[63.056641,35.445801],[63.08418,35.568066],[63.119336,35.637549],[63.169727,35.678125],[63.150781,35.728271],[63.12998,35.766748],[63.108594,35.818701],[63.12998,35.846191],[63.178906,35.858447],[63.30166,35.858398],[63.516992,35.913135],[63.696582,35.967822],[63.8625,36.012354],[63.938086,36.019727],[64.009668,36.012109],[64.042383,36.025098],[64.051367,36.067627],[64.092188,36.112695],[64.184375,36.148926],[64.358008,36.226074],[64.511035,36.340674],[64.56582,36.427588],[64.602539,36.554541],[64.674316,36.750195],[64.753125,36.964795],[64.782422,37.059277],[64.816309,37.13208],[64.951563,37.193555],[65.089648,37.237939],[65.303613,37.246777],[65.55498,37.251172],[65.608008,37.368408],[65.641211,37.467822],[65.683008,37.519141],[65.743848,37.56084],[65.765039,37.569141],[65.900684,37.508105],[66.108398,37.414746],[66.350293,37.368164],[66.471875,37.344727],[66.522266,37.348486]]]},"properties":{"iso":"AF","name":"Afghanistan","layer":"south-asia"}},{"type":"Feature","geometry":{"type":"Polygon","coordinates":[[[73,32.3],[73.8,32],[74.5,32.5],[75.5,32.8],[76.5,32.5],[77.5,32.8],[78.5,33.5],[79.5,34.3],[79.8,35],[79.5,35.8],[78.8,36.1],[77.5,36.3],[76.5,36.5],[75.5,36.8],[74.5,37],[73.8,36.8],[73,36.3],[72.5,35.8],[72.8,35],[73.2,34.5],[73.5,33.8],[73.3,33.2],[73,32.3]]]},"properties":{"iso":"IN-JK","name":"Kashmir","layer":"south-asia"}},{"type":"Feature","geometry":{"type":"Polygon","coordinates":[[[68.2,23.5],[68.8,24.3],[69.5,24.5],[70.3,24.5],[71,24.7],[71.8,24.6],[72.5,24.6],[73.5,24.3],[74.2,23.6],[74.6,22.8],[74.5,22],[74,21.3],[73.4,20.5],[72.8,20.3],[72.6,20.5],[72.5,21.2],[72.2,21.5],[71.5,20.8],[70.8,20.5],[70,20.8],[69.4,21.2],[69,21.8],[68.6,22.3],[68.2,22.8],[68.2,23.5]]]},"properties":{"iso":"IN-GJ","name":"Gujarat","layer":"south-asia"}}]}